[
  {
    "province": "กรุงเทพมหานคร",
    "district": "คลองเตย",
    "postal_code": "10110"
  },
  {
    "province": "กรุงเทพมหานคร",
    "district": "คลองสาน",
    "postal_code": "10600"
  },
  {
    "province": "กรุงเทพมหานคร",
    "district": "คลองสามวา",
    "postal_code": "10510"
  },
  {
    "province": "กรุงเทพมหานคร",
    "district": "คันนายาว",
    "postal_code": "10230"
  },
  {
    "province": "กรุงเทพมหานคร",
    "district": "จตุจักร",
    "postal_code": "10900"
  },
  {
    "province": "กรุงเทพมหานคร",
    "district": "จอมทอง",
    "postal_code": "10150"
  },
  {
    "province": "กรุงเทพมหานคร",
    "district": "ดอนเมือง",
    "postal_code": "10210"
  },
  {
    "province": "กรุงเทพมหานคร",
    "district": "ดินแดง",
    "postal_code": "10400"
  },
  {
    "province": "กรุงเทพมหานคร",
    "district": "ดุสิต",
    "postal_code": "10300"
  },
  {
    "province": "กรุงเทพมหานคร",
    "district": "ตลิ่งชัน",
    "postal_code": "10170"
  },
  {
    "province": "กรุงเทพมหานคร",
    "district": "ทวีวัฒนา",
    "postal_code": "10170"
  },
  {
    "province": "กรุงเทพมหานคร",
    "district": "ทุ่งครุ",
    "postal_code": "10140"
  },
  {
    "province": "กรุงเทพมหานคร",
    "district": "ธนบุรี",
    "postal_code": "10600"
  },
  {
    "province": "กรุงเทพมหานคร",
    "district": "บางกอกน้อย",
    "postal_code": "10700"
  },
  {
    "province": "กรุงเทพมหานคร",
    "district": "บางกอกใหญ่",
    "postal_code": "10600"
  },
  {
    "province": "กรุงเทพมหานคร",
    "district": "บางกะปิ",
    "postal_code": "10240"
  },
  {
    "province": "กรุงเทพมหานคร",
    "district": "บางขุนเทียน",
    "postal_code": "10150"
  },
  {
    "province": "กรุงเทพมหานคร",
    "district": "บางเขน",
    "postal_code": "10220"
  },
  {
    "province": "กรุงเทพมหานคร",
    "district": "บางคอแหลม",
    "postal_code": "10120"
  },
  {
    "province": "กรุงเทพมหานคร",
    "district": "บางแค",
    "postal_code": "10160"
  },
  {
    "province": "กรุงเทพมหานคร",
    "district": "บางซื่อ",
    "postal_code": "10800"
  },
  {
    "province": "กรุงเทพมหานคร",
    "district": "บางนา",
    "postal_code": "10260"
  },
  {
    "province": "กรุงเทพมหานคร",
    "district": "บางบอน",
    "postal_code": "10150"
  },
  {
    "province": "กรุงเทพมหานคร",
    "district": "บางพลัด",
    "postal_code": "10700"
  },
  {
    "province": "กรุงเทพมหานคร",
    "district": "บางรัก",
    "postal_code": "10500"
  },
  {
    "province": "กรุงเทพมหานคร",
    "district": "บึงกุ่ม",
    "postal_code": "10240"
  },
  {
    "province": "กรุงเทพมหานคร",
    "district": "ประเวศ",
    "postal_code": "10250"
  },
  {
    "province": "กรุงเทพมหานคร",
    "district": "ปทุมวัน",
    "postal_code": "10330"
  },
  {
    "province": "กรุงเทพมหานคร",
    "district": "ป้อมปราบศัตรูพ่าย",
    "postal_code": "10100"
  },
  {
    "province": "กรุงเทพมหานคร",
    "district": "พญาไท",
    "postal_code": "10400"
  },
  {
    "province": "กรุงเทพมหานคร",
    "district": "พระโขนง",
    "postal_code": "10260"
  },
  {
    "province": "กรุงเทพมหานคร",
    "district": "พระนคร",
    "postal_code": "10200"
  },
  {
    "province": "กรุงเทพมหานคร",
    "district": "ภาษีเจริญ",
    "postal_code": "10160"
  },
  {
    "province": "กรุงเทพมหานคร",
    "district": "มีนบุรี",
    "postal_code": "10510"
  },
  {
    "province": "กรุงเทพมหานคร",
    "district": "ยานนาวา",
    "postal_code": "10120"
  },
  {
    "province": "กรุงเทพมหานคร",
    "district": "ราชเทวี",
    "postal_code": "10400"
  },
  {
    "province": "กรุงเทพมหานคร",
    "district": "ราษฎร์บูรณะ",
    "postal_code": "10140"
  },
  {
    "province": "กรุงเทพมหานคร",
    "district": "ลาดกระบัง",
    "postal_code": "10520"
  },
  {
    "province": "กรุงเทพมหานคร",
    "district": "ลาดพร้าว",
    "postal_code": "10230"
  },
  {
    "province": "กรุงเทพมหานคร",
    "district": "วังทองหลาง",
    "postal_code": "10310"
  },
  {
    "province": "กรุงเทพมหานคร",
    "district": "วัฒนา",
    "postal_code": "10110"
  },
  {
    "province": "กรุงเทพมหานคร",
    "district": "สวนหลวง",
    "postal_code": "10250"
  },
  {
    "province": "กรุงเทพมหานคร",
    "district": "สะพานสูง",
    "postal_code": "10240"
  },
  {
    "province": "กรุงเทพมหานคร",
    "district": "สัมพันธวงศ์",
    "postal_code": "10100"
  },
  {
    "province": "กรุงเทพมหานคร",
    "district": "สาทร",
    "postal_code": "10120"
  },
  {
    "province": "กรุงเทพมหานคร",
    "district": "สายไหม",
    "postal_code": "10220"
  },
  {
    "province": "กรุงเทพมหานคร",
    "district": "หนองแขม",
    "postal_code": "10160"
  },
  {
    "province": "กรุงเทพมหานคร",
    "district": "หนองจอก",
    "postal_code": "10530"
  },
  {
    "province": "กรุงเทพมหานคร",
    "district": "หลักสี่",
    "postal_code": "10210"
  },
  {
    "province": "กรุงเทพมหานคร",
    "district": "ห้วยขวาง",
    "postal_code": "10310"
  },
  {
    "province": "กระบี่",
    "district": "เมืองกระบี่",
    "postal_code": "81000"
  },
  {
    "province": "กระบี่",
    "district": "เกาะลันตา",
    "postal_code": "81150"
  },
  {
    "province": "กระบี่",
    "district": "เขาพนม",
    "postal_code": "81140"
  },
  {
    "province": "กระบี่",
    "district": "คลองท่อม",
    "postal_code": "81120"
  },
  {
    "province": "กระบี่",
    "district": "ปลายพระยา",
    "postal_code": "81160"
  },
  {
    "province": "กระบี่",
    "district": "ลำทับ",
    "postal_code": "81190"
  },
  {
    "province": "กระบี่",
    "district": "เหนือคลอง",
    "postal_code": "81130"
  },
  {
    "province": "กระบี่",
    "district": "อ่าวลึก",
    "postal_code": "81110"
  },
  {
    "province": "กาญจนบุรี",
    "district": "เมืองกาญจนบุรี",
    "postal_code": "71000"
  },
  {
    "province": "กาญจนบุรี",
    "district": "ด่านมะขามเตี้ย",
    "postal_code": "71260"
  },
  {
    "province": "กาญจนบุรี",
    "district": "ทองผาภูมิ",
    "postal_code": "71180"
  },
  {
    "province": "กาญจนบุรี",
    "district": "ท่าม่วง",
    "postal_code": "71110"
  },
  {
    "province": "กาญจนบุรี",
    "district": "ท่ามะกา",
    "postal_code": "71120"
  },
  {
    "province": "กาญจนบุรี",
    "district": "ไทรโยค",
    "postal_code": "71150"
  },
  {
    "province": "กาญจนบุรี",
    "district": "บ่อพลอย",
    "postal_code": "71160"
  },
  {
    "province": "กาญจนบุรี",
    "district": "พนมทวน",
    "postal_code": "71140"
  },
  {
    "province": "กาญจนบุรี",
    "district": "เลาขวัญ",
    "postal_code": "71210"
  },
  {
    "province": "กาญจนบุรี",
    "district": "ศรีสวัสดิ์",
    "postal_code": "71250"
  },
  {
    "province": "กาญจนบุรี",
    "district": "สังขละบุรี",
    "postal_code": "71240"
  },
  {
    "province": "กาญจนบุรี",
    "district": "หนองปรือ",
    "postal_code": "71220"
  },
  {
    "province": "กาญจนบุรี",
    "district": "ห้วยกระเจา",
    "postal_code": "71170"
  },
  {
    "province": "กาฬสินธุ์",
    "district": "เมืองกาฬสินธุ์",
    "postal_code": "46000"
  },
  {
    "province": "กาฬสินธุ์",
    "district": "กมลาไสย",
    "postal_code": "46130"
  },
  {
    "province": "กาฬสินธุ์",
    "district": "กุฉินารายณ์",
    "postal_code": "46110"
  },
  {
    "province": "กาฬสินธุ์",
    "district": "เขาวง",
    "postal_code": "46160"
  },
  {
    "province": "กาฬสินธุ์",
    "district": "คำม่วง",
    "postal_code": "46180"
  },
  {
    "province": "กาฬสินธุ์",
    "district": "ฆ้องชัย",
    "postal_code": "46130"
  },
  {
    "province": "กาฬสินธุ์",
    "district": "ดอนจาน",
    "postal_code": "46000"
  },
  {
    "province": "กาฬสินธุ์",
    "district": "ท่าคันโท",
    "postal_code": "46190"
  },
  {
    "province": "กาฬสินธุ์",
    "district": "นาคู",
    "postal_code": "46160"
  },
  {
    "province": "กาฬสินธุ์",
    "district": "นามน",
    "postal_code": "46230"
  },
  {
    "province": "กาฬสินธุ์",
    "district": "ยางตลาด",
    "postal_code": "46120"
  },
  {
    "province": "กาฬสินธุ์",
    "district": "ร่องคำ",
    "postal_code": "46210"
  },
  {
    "province": "กาฬสินธุ์",
    "district": "สมเด็จ",
    "postal_code": "46150"
  },
  {
    "province": "กาฬสินธุ์",
    "district": "สหัสขันธ์",
    "postal_code": "46140"
  },
  {
    "province": "กาฬสินธุ์",
    "district": "สามชัย",
    "postal_code": "46180"
  },
  {
    "province": "กาฬสินธุ์",
    "district": "หนองกุงศรี",
    "postal_code": "46220"
  },
  {
    "province": "กาฬสินธุ์",
    "district": "ห้วยผึ้ง",
    "postal_code": "46240"
  },
  {
    "province": "กาฬสินธุ์",
    "district": "ห้วยเม็ก",
    "postal_code": "46170"
  },
  {
    "province": "กำแพงเพชร",
    "district": "เมืองกำแพงเพชร",
    "postal_code": "62000"
  },
  {
    "province": "กำแพงเพชร",
    "district": "โกสัมพีนคร",
    "postal_code": "62000"
  },
  {
    "province": "กำแพงเพชร",
    "district": "ขาณุวรลักษบุรี",
    "postal_code": "62130"
  },
  {
    "province": "กำแพงเพชร",
    "district": "คลองขลุง",
    "postal_code": "62120"
  },
  {
    "province": "กำแพงเพชร",
    "district": "คลองลาน",
    "postal_code": "62180"
  },
  {
    "province": "กำแพงเพชร",
    "district": "ทรายทองวัฒนา",
    "postal_code": "62190"
  },
  {
    "province": "กำแพงเพชร",
    "district": "ไทรงาม",
    "postal_code": "62150"
  },
  {
    "province": "กำแพงเพชร",
    "district": "บึงสามัคคี",
    "postal_code": "62210"
  },
  {
    "province": "กำแพงเพชร",
    "district": "ปางศิลาทอง",
    "postal_code": "62120"
  },
  {
    "province": "กำแพงเพชร",
    "district": "พรานกระต่าย",
    "postal_code": "62110"
  },
  {
    "province": "กำแพงเพชร",
    "district": "ลานกระบือ",
    "postal_code": "62170"
  },
  {
    "province": "ขอนแก่น",
    "district": "เมืองขอนแก่น",
    "postal_code": "40000"
  },
  {
    "province": "ขอนแก่น",
    "district": "กระนวน",
    "postal_code": "40170"
  },
  {
    "province": "ขอนแก่น",
    "district": "เขาสวนกวาง",
    "postal_code": "40280"
  },
  {
    "province": "ขอนแก่น",
    "district": "โคกโพธิ์ไชย",
    "postal_code": "40160"
  },
  {
    "province": "ขอนแก่น",
    "district": "ชนบท",
    "postal_code": "40180"
  },
  {
    "province": "ขอนแก่น",
    "district": "ชุมแพ",
    "postal_code": "40130"
  },
  {
    "province": "ขอนแก่น",
    "district": "ซำสูง",
    "postal_code": "40170"
  },
  {
    "province": "ขอนแก่น",
    "district": "น้ำพอง",
    "postal_code": "40140"
  },
  {
    "province": "ขอนแก่น",
    "district": "โนนศิลา",
    "postal_code": "40110"
  },
  {
    "province": "ขอนแก่น",
    "district": "บ้านไผ่",
    "postal_code": "40110"
  },
  {
    "province": "ขอนแก่น",
    "district": "บ้านฝาง",
    "postal_code": "40270"
  },
  {
    "province": "ขอนแก่น",
    "district": "บ้านแฮด",
    "postal_code": "40110"
  },
  {
    "province": "ขอนแก่น",
    "district": "เปือยน้อย",
    "postal_code": "40340"
  },
  {
    "province": "ขอนแก่น",
    "district": "พระยืน",
    "postal_code": "40320"
  },
  {
    "province": "ขอนแก่น",
    "district": "พล",
    "postal_code": "40120"
  },
  {
    "province": "ขอนแก่น",
    "district": "ภูผาม่าน",
    "postal_code": "40350"
  },
  {
    "province": "ขอนแก่น",
    "district": "ภูเวียง",
    "postal_code": "40150"
  },
  {
    "province": "ขอนแก่น",
    "district": "มัญจาคีรี",
    "postal_code": "40160"
  },
  {
    "province": "ขอนแก่น",
    "district": "เวียงเก่า",
    "postal_code": "40150"
  },
  {
    "province": "ขอนแก่น",
    "district": "แวงน้อย",
    "postal_code": "40230"
  },
  {
    "province": "ขอนแก่น",
    "district": "แวงใหญ่",
    "postal_code": "40330"
  },
  {
    "province": "ขอนแก่น",
    "district": "สีชมพู",
    "postal_code": "40220"
  },
  {
    "province": "ขอนแก่น",
    "district": "หนองนาคำ",
    "postal_code": "40150"
  },
  {
    "province": "ขอนแก่น",
    "district": "หนองเรือ",
    "postal_code": "40210"
  },
  {
    "province": "ขอนแก่น",
    "district": "หนองสองห้อง",
    "postal_code": "40190"
  },
  {
    "province": "ขอนแก่น",
    "district": "อุบลรัตน์",
    "postal_code": "40250"
  },
  {
    "province": "จันทบุรี",
    "district": "เมืองจันทบุรี",
    "postal_code": "22000"
  },
  {
    "province": "จันทบุรี",
    "district": "แก่งหางแมว",
    "postal_code": "22160"
  },
  {
    "province": "จันทบุรี",
    "district": "ขลุง",
    "postal_code": "22110"
  },
  {
    "province": "จันทบุรี",
    "district": "เขาคิชฌกูฏ",
    "postal_code": "22210"
  },
  {
    "province": "จันทบุรี",
    "district": "ท่าใหม่",
    "postal_code": "22120"
  },
  {
    "province": "จันทบุรี",
    "district": "นายายอาม",
    "postal_code": "22160"
  },
  {
    "province": "จันทบุรี",
    "district": "โป่งน้ำร้อน",
    "postal_code": "22140"
  },
  {
    "province": "จันทบุรี",
    "district": "มะขาม",
    "postal_code": "22150"
  },
  {
    "province": "จันทบุรี",
    "district": "สอยดาว",
    "postal_code": "22180"
  },
  {
    "province": "จันทบุรี",
    "district": "แหลมสิงห์",
    "postal_code": "22130"
  },
  {
    "province": "ฉะเชิงเทรา",
    "district": "เมืองฉะเชิงเทรา",
    "postal_code": "24000"
  },
  {
    "province": "ฉะเชิงเทรา",
    "district": "คลองเขื่อน",
    "postal_code": "24000"
  },
  {
    "province": "ฉะเชิงเทรา",
    "district": "ท่าตะเกียบ",
    "postal_code": "24160"
  },
  {
    "province": "ฉะเชิงเทรา",
    "district": "บางคล้า",
    "postal_code": "24110"
  },
  {
    "province": "ฉะเชิงเทรา",
    "district": "บางน้ำเปรี้ยว",
    "postal_code": "24150"
  },
  {
    "province": "ฉะเชิงเทรา",
    "district": "บางปะกง",
    "postal_code": "24130"
  },
  {
    "province": "ฉะเชิงเทรา",
    "district": "บ้านโพธิ์",
    "postal_code": "24140"
  },
  {
    "province": "ฉะเชิงเทรา",
    "district": "แปลงยาว",
    "postal_code": "24190"
  },
  {
    "province": "ฉะเชิงเทรา",
    "district": "พนมสารคาม",
    "postal_code": "24120"
  },
  {
    "province": "ฉะเชิงเทรา",
    "district": "ราชสาส์น",
    "postal_code": "24120"
  },
  {
    "province": "ฉะเชิงเทรา",
    "district": "สนามชัยเขต",
    "postal_code": "24160"
  },
  {
    "province": "ชลบุรี",
    "district": "เมืองชลบุรี",
    "postal_code": "20000"
  },
  {
    "province": "ชลบุรี",
    "district": "เกาะจันทร์",
    "postal_code": "20240"
  },
  {
    "province": "ชลบุรี",
    "district": "เกาะสีชัง",
    "postal_code": "20120"
  },
  {
    "province": "ชลบุรี",
    "district": "บ่อทอง",
    "postal_code": "20270"
  },
  {
    "province": "ชลบุรี",
    "district": "บางละมุง",
    "postal_code": "20150"
  },
  {
    "province": "ชลบุรี",
    "district": "บ้านบึง",
    "postal_code": "20170"
  },
  {
    "province": "ชลบุรี",
    "district": "พนัสนิคม",
    "postal_code": "20140"
  },
  {
    "province": "ชลบุรี",
    "district": "พานทอง",
    "postal_code": "20160"
  },
  {
    "province": "ชลบุรี",
    "district": "ศรีราชา",
    "postal_code": "20110"
  },
  {
    "province": "ชลบุรี",
    "district": "สัตหีบ",
    "postal_code": "20180"
  },
  {
    "province": "ชลบุรี",
    "district": "หนองใหญ่",
    "postal_code": "20190"
  },
  {
    "province": "ชัยนาท",
    "district": "เมืองชัยนาท",
    "postal_code": "17000"
  },
  {
    "province": "ชัยนาท",
    "district": "เนินขาม",
    "postal_code": "17130"
  },
  {
    "province": "ชัยนาท",
    "district": "มโนรมย์",
    "postal_code": "17110"
  },
  {
    "province": "ชัยนาท",
    "district": "วัดสิงห์",
    "postal_code": "17120"
  },
  {
    "province": "ชัยนาท",
    "district": "สรรคบุรี",
    "postal_code": "17140"
  },
  {
    "province": "ชัยนาท",
    "district": "สรรพยา",
    "postal_code": "17150"
  },
  {
    "province": "ชัยนาท",
    "district": "หนองมะโมง",
    "postal_code": "17120"
  },
  {
    "province": "ชัยนาท",
    "district": "หันคา",
    "postal_code": "17130"
  },
  {
    "province": "ชัยภูมิ",
    "district": "เมืองชัยภูมิ",
    "postal_code": "36000"
  },
  {
    "province": "ชัยภูมิ",
    "district": "เกษตรสมบูรณ์",
    "postal_code": "36120"
  },
  {
    "province": "ชัยภูมิ",
    "district": "แก้งคร้อ",
    "postal_code": "36150"
  },
  {
    "province": "ชัยภูมิ",
    "district": "คอนสวรรค์",
    "postal_code": "36140"
  },
  {
    "province": "ชัยภูมิ",
    "district": "คอนสาร",
    "postal_code": "36180"
  },
  {
    "province": "ชัยภูมิ",
    "district": "จัตุรัส",
    "postal_code": "36130"
  },
  {
    "province": "ชัยภูมิ",
    "district": "ซับใหญ่",
    "postal_code": "36130"
  },
  {
    "province": "ชัยภูมิ",
    "district": "เทพสถิต",
    "postal_code": "36230"
  },
  {
    "province": "ชัยภูมิ",
    "district": "เนินสง่า",
    "postal_code": "36130"
  },
  {
    "province": "ชัยภูมิ",
    "district": "บ้านเขว้า",
    "postal_code": "36170"
  },
  {
    "province": "ชัยภูมิ",
    "district": "บ้านแท่น",
    "postal_code": "36190"
  },
  {
    "province": "ชัยภูมิ",
    "district": "บำเหน็จณรงค์",
    "postal_code": "36160"
  },
  {
    "province": "ชัยภูมิ",
    "district": "ภักดีชุมพล",
    "postal_code": "36260"
  },
  {
    "province": "ชัยภูมิ",
    "district": "ภูเขียว",
    "postal_code": "36110"
  },
  {
    "province": "ชัยภูมิ",
    "district": "หนองบัวแดง",
    "postal_code": "36210"
  },
  {
    "province": "ชัยภูมิ",
    "district": "หนองบัวระเหว",
    "postal_code": "36250"
  },
  {
    "province": "ชุมพร",
    "district": "เมืองชุมพร",
    "postal_code": "86000"
  },
  {
    "province": "ชุมพร",
    "district": "ท่าแซะ",
    "postal_code": "86140"
  },
  {
    "province": "ชุมพร",
    "district": "ทุ่งตะโก",
    "postal_code": "86220"
  },
  {
    "province": "ชุมพร",
    "district": "ปะทิว",
    "postal_code": "86160"
  },
  {
    "province": "ชุมพร",
    "district": "พะโต๊ะ",
    "postal_code": "86180"
  },
  {
    "province": "ชุมพร",
    "district": "ละแม",
    "postal_code": "86170"
  },
  {
    "province": "ชุมพร",
    "district": "สวี",
    "postal_code": "86130"
  },
  {
    "province": "ชุมพร",
    "district": "หลังสวน",
    "postal_code": "86110"
  },
  {
    "province": "เชียงราย",
    "district": "เมืองเชียงราย",
    "postal_code": "57000"
  },
  {
    "province": "เชียงราย",
    "district": "ขุนตาล",
    "postal_code": "57340"
  },
  {
    "province": "เชียงราย",
    "district": "เชียงของ",
    "postal_code": "57140"
  },
  {
    "province": "เชียงราย",
    "district": "เชียงแสน",
    "postal_code": "57150"
  },
  {
    "province": "เชียงราย",
    "district": "ดอยหลวง",
    "postal_code": "57110"
  },
  {
    "province": "เชียงราย",
    "district": "เทิง",
    "postal_code": "57160"
  },
  {
    "province": "เชียงราย",
    "district": "ป่าแดด",
    "postal_code": "57190"
  },
  {
    "province": "เชียงราย",
    "district": "พญาเม็งราย",
    "postal_code": "57290"
  },
  {
    "province": "เชียงราย",
    "district": "พาน",
    "postal_code": "57120"
  },
  {
    "province": "เชียงราย",
    "district": "แม่จัน",
    "postal_code": "57110"
  },
  {
    "province": "เชียงราย",
    "district": "แม่ฟ้าหลวง",
    "postal_code": "57240"
  },
  {
    "province": "เชียงราย",
    "district": "แม่ลาว",
    "postal_code": "57250"
  },
  {
    "province": "เชียงราย",
    "district": "แม่สรวย",
    "postal_code": "57180"
  },
  {
    "province": "เชียงราย",
    "district": "แม่สาย",
    "postal_code": "57130"
  },
  {
    "province": "เชียงราย",
    "district": "เวียงแก่น",
    "postal_code": "57310"
  },
  {
    "province": "เชียงราย",
    "district": "เวียงชัย",
    "postal_code": "57210"
  },
  {
    "province": "เชียงราย",
    "district": "เวียงเชียงรุ้ง",
    "postal_code": "57210"
  },
  {
    "province": "เชียงราย",
    "district": "เวียงป่าเป้า",
    "postal_code": "57170"
  },
  {
    "province": "เชียงใหม่",
    "district": "เมืองเชียงใหม่",
    "postal_code": "50000"
  },
  {
    "province": "เชียงใหม่",
    "district": "กัลยาณิวัฒนา",
    "postal_code": "58130"
  },
  {
    "province": "เชียงใหม่",
    "district": "จอมทอง",
    "postal_code": "50160"
  },
  {
    "province": "เชียงใหม่",
    "district": "เชียงดาว",
    "postal_code": "50170"
  },
  {
    "province": "เชียงใหม่",
    "district": "ไชยปราการ",
    "postal_code": "50320"
  },
  {
    "province": "เชียงใหม่",
    "district": "ดอยเต่า",
    "postal_code": "50260"
  },
  {
    "province": "เชียงใหม่",
    "district": "ดอยสะเก็ด",
    "postal_code": "50220"
  },
  {
    "province": "เชียงใหม่",
    "district": "ดอยหล่อ",
    "postal_code": "50160"
  },
  {
    "province": "เชียงใหม่",
    "district": "ฝาง",
    "postal_code": "50110"
  },
  {
    "province": "เชียงใหม่",
    "district": "พร้าว",
    "postal_code": "50190"
  },
  {
    "province": "เชียงใหม่",
    "district": "แม่แจ่ม",
    "postal_code": "50270"
  },
  {
    "province": "เชียงใหม่",
    "district": "แม่แตง",
    "postal_code": "50150"
  },
  {
    "province": "เชียงใหม่",
    "district": "แม่ริม",
    "postal_code": "50180"
  },
  {
    "province": "เชียงใหม่",
    "district": "แม่วาง",
    "postal_code": "50360"
  },
  {
    "province": "เชียงใหม่",
    "district": "แม่ออน",
    "postal_code": "50130"
  },
  {
    "province": "เชียงใหม่",
    "district": "แม่อาย",
    "postal_code": "50280"
  },
  {
    "province": "เชียงใหม่",
    "district": "เวียงแหง",
    "postal_code": "50350"
  },
  {
    "province": "เชียงใหม่",
    "district": "สะเมิง",
    "postal_code": "50250"
  },
  {
    "province": "เชียงใหม่",
    "district": "สันกำแพง",
    "postal_code": "50130"
  },
  {
    "province": "เชียงใหม่",
    "district": "สันทราย",
    "postal_code": "50210"
  },
  {
    "province": "เชียงใหม่",
    "district": "สันป่าตอง",
    "postal_code": "50120"
  },
  {
    "province": "เชียงใหม่",
    "district": "สารภี",
    "postal_code": "50140"
  },
  {
    "province": "เชียงใหม่",
    "district": "หางดง",
    "postal_code": "50230"
  },
  {
    "province": "เชียงใหม่",
    "district": "อมก๋อย",
    "postal_code": "50310"
  },
  {
    "province": "เชียงใหม่",
    "district": "ฮอด",
    "postal_code": "50240"
  },
  {
    "province": "ตรัง",
    "district": "เมืองตรัง",
    "postal_code": "92000"
  },
  {
    "province": "ตรัง",
    "district": "กันตัง",
    "postal_code": "92110"
  },
  {
    "province": "ตรัง",
    "district": "นาโยง",
    "postal_code": "92170"
  },
  {
    "province": "ตรัง",
    "district": "ปะเหลียน",
    "postal_code": "92120"
  },
  {
    "province": "ตรัง",
    "district": "ย่านตาขาว",
    "postal_code": "92140"
  },
  {
    "province": "ตรัง",
    "district": "รัษฎา",
    "postal_code": "92160"
  },
  {
    "province": "ตรัง",
    "district": "วังวิเศษ",
    "postal_code": "92220"
  },
  {
    "province": "ตรัง",
    "district": "สิเกา",
    "postal_code": "92150"
  },
  {
    "province": "ตรัง",
    "district": "ห้วยยอด",
    "postal_code": "92130"
  },
  {
    "province": "ตรัง",
    "district": "หาดสำราญ",
    "postal_code": "92120"
  },
  {
    "province": "ตราด",
    "district": "เมืองตราด",
    "postal_code": "23000"
  },
  {
    "province": "ตราด",
    "district": "เกาะกูด",
    "postal_code": "23000"
  },
  {
    "province": "ตราด",
    "district": "เกาะช้าง",
    "postal_code": "23170"
  },
  {
    "province": "ตราด",
    "district": "เขาสมิง",
    "postal_code": "23130"
  },
  {
    "province": "ตราด",
    "district": "คลองใหญ่",
    "postal_code": "23110"
  },
  {
    "province": "ตราด",
    "district": "บ่อไร่",
    "postal_code": "23140"
  },
  {
    "province": "ตราด",
    "district": "แหลมงอบ",
    "postal_code": "23120"
  },
  {
    "province": "ตาก",
    "district": "เมืองตาก",
    "postal_code": "63000"
  },
  {
    "province": "ตาก",
    "district": "ท่าสองยาง",
    "postal_code": "63150"
  },
  {
    "province": "ตาก",
    "district": "บ้านตาก",
    "postal_code": "63120"
  },
  {
    "province": "ตาก",
    "district": "พบพระ",
    "postal_code": "63160"
  },
  {
    "province": "ตาก",
    "district": "แม่ระมาด",
    "postal_code": "63140"
  },
  {
    "province": "ตาก",
    "district": "แม่สอด",
    "postal_code": "63110"
  },
  {
    "province": "ตาก",
    "district": "วังเจ้า",
    "postal_code": "63180"
  },
  {
    "province": "ตาก",
    "district": "สามเงา",
    "postal_code": "63130"
  },
  {
    "province": "ตาก",
    "district": "อุ้มผาง",
    "postal_code": "63170"
  },
  {
    "province": "นครนายก",
    "district": "เมืองนครนายก",
    "postal_code": "26000"
  },
  {
    "province": "นครนายก",
    "district": "บ้านนา",
    "postal_code": "26110"
  },
  {
    "province": "นครนายก",
    "district": "ปากพลี",
    "postal_code": "26130"
  },
  {
    "province": "นครนายก",
    "district": "องครักษ์",
    "postal_code": "26120"
  },
  {
    "province": "นครปฐม",
    "district": "เมืองนครปฐม",
    "postal_code": "73000"
  },
  {
    "province": "นครปฐม",
    "district": "กำแพงแสน",
    "postal_code": "73140"
  },
  {
    "province": "นครปฐม",
    "district": "ดอนตูม",
    "postal_code": "73150"
  },
  {
    "province": "นครปฐม",
    "district": "นครชัยศรี",
    "postal_code": "73120"
  },
  {
    "province": "นครปฐม",
    "district": "บางเลน",
    "postal_code": "73130"
  },
  {
    "province": "นครปฐม",
    "district": "พุทธมณฑล",
    "postal_code": "73170"
  },
  {
    "province": "นครปฐม",
    "district": "สามพราน",
    "postal_code": "73110"
  },
  {
    "province": "นครพนม",
    "district": "เมืองนครพนม",
    "postal_code": "48000"
  },
  {
    "province": "นครพนม",
    "district": "ท่าอุเทน",
    "postal_code": "48120"
  },
  {
    "province": "นครพนม",
    "district": "ธาตุพนม",
    "postal_code": "48110"
  },
  {
    "province": "นครพนม",
    "district": "นาแก",
    "postal_code": "48130"
  },
  {
    "province": "นครพนม",
    "district": "นาทม",
    "postal_code": "48140"
  },
  {
    "province": "นครพนม",
    "district": "นาหว้า",
    "postal_code": "48180"
  },
  {
    "province": "นครพนม",
    "district": "บ้านแพง",
    "postal_code": "48140"
  },
  {
    "province": "นครพนม",
    "district": "ปลาปาก",
    "postal_code": "48160"
  },
  {
    "province": "นครพนม",
    "district": "โพนสวรรค์",
    "postal_code": "48190"
  },
  {
    "province": "นครพนม",
    "district": "เรณูนคร",
    "postal_code": "48170"
  },
  {
    "province": "นครพนม",
    "district": "วังยาง",
    "postal_code": "48130"
  },
  {
    "province": "นครพนม",
    "district": "ศรีสงคราม",
    "postal_code": "48150"
  },
  {
    "province": "นครราชสีมา",
    "district": "เมืองนครราชสีมา",
    "postal_code": "30000"
  },
  {
    "province": "นครราชสีมา",
    "district": "แก้งสนามนาง",
    "postal_code": "30440"
  },
  {
    "province": "นครราชสีมา",
    "district": "ขามทะเลสอ",
    "postal_code": "30280"
  },
  {
    "province": "นครราชสีมา",
    "district": "ขามสะแกแสง",
    "postal_code": "30290"
  },
  {
    "province": "นครราชสีมา",
    "district": "คง",
    "postal_code": "30260"
  },
  {
    "province": "นครราชสีมา",
    "district": "ครบุรี",
    "postal_code": "30250"
  },
  {
    "province": "นครราชสีมา",
    "district": "จักราช",
    "postal_code": "30230"
  },
  {
    "province": "นครราชสีมา",
    "district": "เฉลิมพระเกียรติ",
    "postal_code": "30230"
  },
  {
    "province": "นครราชสีมา",
    "district": "ชุมพวง",
    "postal_code": "30270"
  },
  {
    "province": "นครราชสีมา",
    "district": "โชคชัย",
    "postal_code": "30190"
  },
  {
    "province": "นครราชสีมา",
    "district": "ด่านขุนทด",
    "postal_code": "30210"
  },
  {
    "province": "นครราชสีมา",
    "district": "เทพารักษ์",
    "postal_code": "30210"
  },
  {
    "province": "นครราชสีมา",
    "district": "โนนแดง",
    "postal_code": "30360"
  },
  {
    "province": "นครราชสีมา",
    "district": "โนนไทย",
    "postal_code": "30220"
  },
  {
    "province": "นครราชสีมา",
    "district": "โนนสูง",
    "postal_code": "30160"
  },
  {
    "province": "นครราชสีมา",
    "district": "บัวลาย",
    "postal_code": "30120"
  },
  {
    "province": "นครราชสีมา",
    "district": "บัวใหญ่",
    "postal_code": "30120"
  },
  {
    "province": "นครราชสีมา",
    "district": "บ้านเหลื่อม",
    "postal_code": "30350"
  },
  {
    "province": "นครราชสีมา",
    "district": "ประทาย",
    "postal_code": "30180"
  },
  {
    "province": "นครราชสีมา",
    "district": "ปักธงชัย",
    "postal_code": "30150"
  },
  {
    "province": "นครราชสีมา",
    "district": "ปากช่อง",
    "postal_code": "30130"
  },
  {
    "province": "นครราชสีมา",
    "district": "พระทองคำ",
    "postal_code": "30220"
  },
  {
    "province": "นครราชสีมา",
    "district": "พิมาย",
    "postal_code": "30110"
  },
  {
    "province": "นครราชสีมา",
    "district": "เมืองยาง",
    "postal_code": "30270"
  },
  {
    "province": "นครราชสีมา",
    "district": "ลำทะเมนชัย",
    "postal_code": "30270"
  },
  {
    "province": "นครราชสีมา",
    "district": "วังน้ำเขียว",
    "postal_code": "30370"
  },
  {
    "province": "นครราชสีมา",
    "district": "สีคิ้ว",
    "postal_code": "30140"
  },
  {
    "province": "นครราชสีมา",
    "district": "สีดา",
    "postal_code": "30430"
  },
  {
    "province": "นครราชสีมา",
    "district": "สูงเนิน",
    "postal_code": "30170"
  },
  {
    "province": "นครราชสีมา",
    "district": "เสิงสาง",
    "postal_code": "30330"
  },
  {
    "province": "นครราชสีมา",
    "district": "หนองบุญมาก",
    "postal_code": "30410"
  },
  {
    "province": "นครราชสีมา",
    "district": "ห้วยแถลง",
    "postal_code": "30240"
  },
  {
    "province": "นครศรีธรรมราช",
    "district": "เมืองนครศรีธรรมราช",
    "postal_code": "80000"
  },
  {
    "province": "นครศรีธรรมราช",
    "district": "ขนอม",
    "postal_code": "80210"
  },
  {
    "province": "นครศรีธรรมราช",
    "district": "จุฬาภรณ์",
    "postal_code": "80130"
  },
  {
    "province": "นครศรีธรรมราช",
    "district": "ฉวาง",
    "postal_code": "80150"
  },
  {
    "province": "นครศรีธรรมราช",
    "district": "เฉลิมพระเกียรติ",
    "postal_code": "80190"
  },
  {
    "province": "นครศรีธรรมราช",
    "district": "ชะอวด",
    "postal_code": "80180"
  },
  {
    "province": "นครศรีธรรมราช",
    "district": "ช้างกลาง",
    "postal_code": "80250"
  },
  {
    "province": "นครศรีธรรมราช",
    "district": "เชียรใหญ่",
    "postal_code": "80190"
  },
  {
    "province": "นครศรีธรรมราช",
    "district": "ถ้ำพรรณรา",
    "postal_code": "80260"
  },
  {
    "province": "นครศรีธรรมราช",
    "district": "ท่าศาลา",
    "postal_code": "80160"
  },
  {
    "province": "นครศรีธรรมราช",
    "district": "ทุ่งใหญ่",
    "postal_code": "80240"
  },
  {
    "province": "นครศรีธรรมราช",
    "district": "ทุ่งสง",
    "postal_code": "80110"
  },
  {
    "province": "นครศรีธรรมราช",
    "district": "นบพิตำ",
    "postal_code": "80160"
  },
  {
    "province": "นครศรีธรรมราช",
    "district": "นาบอน",
    "postal_code": "80220"
  },
  {
    "province": "นครศรีธรรมราช",
    "district": "บางขัน",
    "postal_code": "80360"
  },
  {
    "province": "นครศรีธรรมราช",
    "district": "ปากพนัง",
    "postal_code": "80140"
  },
  {
    "province": "นครศรีธรรมราช",
    "district": "พรหมคีรี",
    "postal_code": "80320"
  },
  {
    "province": "นครศรีธรรมราช",
    "district": "พระพรหม",
    "postal_code": "80000"
  },
  {
    "province": "นครศรีธรรมราช",
    "district": "พิปูน",
    "postal_code": "80270"
  },
  {
    "province": "นครศรีธรรมราช",
    "district": "ร่อนพิบูลย์",
    "postal_code": "80130"
  },
  {
    "province": "นครศรีธรรมราช",
    "district": "ลานสกา",
    "postal_code": "80230"
  },
  {
    "province": "นครศรีธรรมราช",
    "district": "สิชล",
    "postal_code": "80120"
  },
  {
    "province": "นครศรีธรรมราช",
    "district": "หัวไทร",
    "postal_code": "80170"
  },
  {
    "province": "นครสวรรค์",
    "district": "เมืองนครสวรรค์",
    "postal_code": "60000"
  },
  {
    "province": "นครสวรรค์",
    "district": "เก้าเลี้ยว",
    "postal_code": "60230"
  },
  {
    "province": "นครสวรรค์",
    "district": "โกรกพระ",
    "postal_code": "60170"
  },
  {
    "province": "นครสวรรค์",
    "district": "ชุมตาบง",
    "postal_code": "60150"
  },
  {
    "province": "นครสวรรค์",
    "district": "ชุมแสง",
    "postal_code": "60120"
  },
  {
    "province": "นครสวรรค์",
    "district": "ตากฟ้า",
    "postal_code": "60190"
  },
  {
    "province": "นครสวรรค์",
    "district": "ตาคลี",
    "postal_code": "60140"
  },
  {
    "province": "นครสวรรค์",
    "district": "ท่าตะโก",
    "postal_code": "60160"
  },
  {
    "province": "นครสวรรค์",
    "district": "บรรพตพิสัย",
    "postal_code": "60180"
  },
  {
    "province": "นครสวรรค์",
    "district": "พยุหะคีรี",
    "postal_code": "60130"
  },
  {
    "province": "นครสวรรค์",
    "district": "ไพศาลี",
    "postal_code": "60220"
  },
  {
    "province": "นครสวรรค์",
    "district": "แม่เปิน",
    "postal_code": "60150"
  },
  {
    "province": "นครสวรรค์",
    "district": "แม่วงก์",
    "postal_code": "60150"
  },
  {
    "province": "นครสวรรค์",
    "district": "ลาดยาว",
    "postal_code": "60150"
  },
  {
    "province": "นครสวรรค์",
    "district": "หนองบัว",
    "postal_code": "60110"
  },
  {
    "province": "นนทบุรี",
    "district": "เมืองนนทบุรี",
    "postal_code": "11000"
  },
  {
    "province": "นนทบุรี",
    "district": "ไทรน้อย",
    "postal_code": "11150"
  },
  {
    "province": "นนทบุรี",
    "district": "บางกรวย",
    "postal_code": "11130"
  },
  {
    "province": "นนทบุรี",
    "district": "บางบัวทอง",
    "postal_code": "11110"
  },
  {
    "province": "นนทบุรี",
    "district": "บางใหญ่",
    "postal_code": "11140"
  },
  {
    "province": "นนทบุรี",
    "district": "ปากเกร็ด",
    "postal_code": "11120"
  },
  {
    "province": "นราธิวาส",
    "district": "เมืองนราธิวาส",
    "postal_code": "96000"
  },
  {
    "province": "นราธิวาส",
    "district": "จะแนะ",
    "postal_code": "96220"
  },
  {
    "province": "นราธิวาส",
    "district": "เจาะไอร้อง",
    "postal_code": "96130"
  },
  {
    "province": "นราธิวาส",
    "district": "ตากใบ",
    "postal_code": "96110"
  },
  {
    "province": "นราธิวาส",
    "district": "บาเจาะ",
    "postal_code": "96170"
  },
  {
    "province": "นราธิวาส",
    "district": "ยี่งอ",
    "postal_code": "96180"
  },
  {
    "province": "นราธิวาส",
    "district": "ระแงะ",
    "postal_code": "96130"
  },
  {
    "province": "นราธิวาส",
    "district": "รือเสาะ",
    "postal_code": "96150"
  },
  {
    "province": "นราธิวาส",
    "district": "แว้ง",
    "postal_code": "96160"
  },
  {
    "province": "นราธิวาส",
    "district": "ศรีสาคร",
    "postal_code": "96210"
  },
  {
    "province": "นราธิวาส",
    "district": "สุคิริน",
    "postal_code": "96190"
  },
  {
    "province": "นราธิวาส",
    "district": "สุไหงโก-ลก",
    "postal_code": "96120"
  },
  {
    "province": "นราธิวาส",
    "district": "สุไหงปาดี",
    "postal_code": "96140"
  },
  {
    "province": "น่าน",
    "district": "เมืองน่าน",
    "postal_code": "55000"
  },
  {
    "province": "น่าน",
    "district": "เฉลิมพระเกียรติ",
    "postal_code": "55130"
  },
  {
    "province": "น่าน",
    "district": "เชียงกลาง",
    "postal_code": "55160"
  },
  {
    "province": "น่าน",
    "district": "ท่าวังผา",
    "postal_code": "55140"
  },
  {
    "province": "น่าน",
    "district": "ทุ่งช้าง",
    "postal_code": "55130"
  },
  {
    "province": "น่าน",
    "district": "นาน้อย",
    "postal_code": "55150"
  },
  {
    "province": "น่าน",
    "district": "นาหมื่น",
    "postal_code": "55180"
  },
  {
    "province": "น่าน",
    "district": "บ่อเกลือ",
    "postal_code": "55220"
  },
  {
    "province": "น่าน",
    "district": "บ้านหลวง",
    "postal_code": "55190"
  },
  {
    "province": "น่าน",
    "district": "ปัว",
    "postal_code": "55120"
  },
  {
    "province": "น่าน",
    "district": "ภูเพียง",
    "postal_code": "55000"
  },
  {
    "province": "น่าน",
    "district": "แม่จริม",
    "postal_code": "55170"
  },
  {
    "province": "น่าน",
    "district": "เวียงสา",
    "postal_code": "55110"
  },
  {
    "province": "น่าน",
    "district": "สองแคว",
    "postal_code": "55160"
  },
  {
    "province": "น่าน",
    "district": "สันติสุข",
    "postal_code": "55210"
  },
  {
    "province": "บึงกาฬ",
    "district": "เมืองบึงกาฬ",
    "postal_code": "38000"
  },
  {
    "province": "บึงกาฬ",
    "district": "เซกา",
    "postal_code": "38150"
  },
  {
    "province": "บึงกาฬ",
    "district": "โซ่พิสัย",
    "postal_code": "38170"
  },
  {
    "province": "บึงกาฬ",
    "district": "บึงโขงหลง",
    "postal_code": "38220"
  },
  {
    "province": "บึงกาฬ",
    "district": "บุ่งคล้า",
    "postal_code": "38000"
  },
  {
    "province": "บึงกาฬ",
    "district": "ปากคาด",
    "postal_code": "38190"
  },
  {
    "province": "บึงกาฬ",
    "district": "พรเจริญ",
    "postal_code": "38180"
  },
  {
    "province": "บึงกาฬ",
    "district": "ศรีวิไล",
    "postal_code": "38210"
  },
  {
    "province": "บุรีรัมย์",
    "district": "เมืองบุรีรัมย์",
    "postal_code": "31000"
  },
  {
    "province": "บุรีรัมย์",
    "district": "กระสัง",
    "postal_code": "31160"
  },
  {
    "province": "บุรีรัมย์",
    "district": "คูเมือง",
    "postal_code": "31190"
  },
  {
    "province": "บุรีรัมย์",
    "district": "แคนดง",
    "postal_code": "31150"
  },
  {
    "province": "บุรีรัมย์",
    "district": "เฉลิมพระเกียรติ",
    "postal_code": "31110"
  },
  {
    "province": "บุรีรัมย์",
    "district": "ชำนิ",
    "postal_code": "31110"
  },
  {
    "province": "บุรีรัมย์",
    "district": "นาโพธิ์",
    "postal_code": "31230"
  },
  {
    "province": "บุรีรัมย์",
    "district": "นางรอง",
    "postal_code": "31110"
  },
  {
    "province": "บุรีรัมย์",
    "district": "โนนดินแดง",
    "postal_code": "31260"
  },
  {
    "province": "บุรีรัมย์",
    "district": "โนนสุวรรณ",
    "postal_code": "31110"
  },
  {
    "province": "บุรีรัมย์",
    "district": "บ้านกรวด",
    "postal_code": "31180"
  },
  {
    "province": "บุรีรัมย์",
    "district": "บ้านด่าน",
    "postal_code": "31000"
  },
  {
    "province": "บุรีรัมย์",
    "district": "บ้านใหม่ไชยพจน์",
    "postal_code": "31120"
  },
  {
    "province": "บุรีรัมย์",
    "district": "ประโคนชัย",
    "postal_code": "31140"
  },
  {
    "province": "บุรีรัมย์",
    "district": "ปะคำ",
    "postal_code": "31220"
  },
  {
    "province": "บุรีรัมย์",
    "district": "พลับพลาชัย",
    "postal_code": "31250"
  },
  {
    "province": "บุรีรัมย์",
    "district": "พุทไธสง",
    "postal_code": "31120"
  },
  {
    "province": "บุรีรัมย์",
    "district": "ละหานทราย",
    "postal_code": "31170"
  },
  {
    "province": "บุรีรัมย์",
    "district": "ลำปลายมาศ",
    "postal_code": "31130"
  },
  {
    "province": "บุรีรัมย์",
    "district": "สตึก",
    "postal_code": "31150"
  },
  {
    "province": "บุรีรัมย์",
    "district": "หนองกี่",
    "postal_code": "31210"
  },
  {
    "province": "บุรีรัมย์",
    "district": "หนองหงส์",
    "postal_code": "31240"
  },
  {
    "province": "บุรีรัมย์",
    "district": "ห้วยราช",
    "postal_code": "31000"
  },
  {
    "province": "ปทุมธานี",
    "district": "เมืองปทุมธานี",
    "postal_code": "12000"
  },
  {
    "province": "ปทุมธานี",
    "district": "คลองหลวง",
    "postal_code": "12120"
  },
  {
    "province": "ปทุมธานี",
    "district": "ธัญบุรี",
    "postal_code": "12110"
  },
  {
    "province": "ปทุมธานี",
    "district": "ลาดหลุมแก้ว",
    "postal_code": "12140"
  },
  {
    "province": "ปทุมธานี",
    "district": "ลำลูกกา",
    "postal_code": "12150"
  },
  {
    "province": "ปทุมธานี",
    "district": "สามโคก",
    "postal_code": "12160"
  },
  {
    "province": "ปทุมธานี",
    "district": "หนองเสือ",
    "postal_code": "12170"
  },
  {
    "province": "ประจวบคีรีขันธ์",
    "district": "เมืองประจวบคีรีขันธ์",
    "postal_code": "77000"
  },
  {
    "province": "ประจวบคีรีขันธ์",
    "district": "กุยบุรี",
    "postal_code": "77150"
  },
  {
    "province": "ประจวบคีรีขันธ์",
    "district": "ทับสะแก",
    "postal_code": "77130"
  },
  {
    "province": "ประจวบคีรีขันธ์",
    "district": "บางสะพาน",
    "postal_code": "77140"
  },
  {
    "province": "ประจวบคีรีขันธ์",
    "district": "บางสะพานน้อย",
    "postal_code": "77170"
  },
  {
    "province": "ประจวบคีรีขันธ์",
    "district": "ปราณบุรี",
    "postal_code": "77120"
  },
  {
    "province": "ประจวบคีรีขันธ์",
    "district": "สามร้อยยอด",
    "postal_code": "77180"
  },
  {
    "province": "ประจวบคีรีขันธ์",
    "district": "หัวหิน",
    "postal_code": "77110"
  },
  {
    "province": "ปราจีนบุรี",
    "district": "เมืองปราจีนบุรี",
    "postal_code": "25000"
  },
  {
    "province": "ปราจีนบุรี",
    "district": "กบินทร์บุรี",
    "postal_code": "25110"
  },
  {
    "province": "ปราจีนบุรี",
    "district": "นาดี",
    "postal_code": "25220"
  },
  {
    "province": "ปราจีนบุรี",
    "district": "บ้านสร้าง",
    "postal_code": "25150"
  },
  {
    "province": "ปราจีนบุรี",
    "district": "ประจันตคาม",
    "postal_code": "25130"
  },
  {
    "province": "ปราจีนบุรี",
    "district": "ศรีมหาโพธิ",
    "postal_code": "25140"
  },
  {
    "province": "ปราจีนบุรี",
    "district": "ศรีมโหสถ",
    "postal_code": "25190"
  },
  {
    "province": "ปัตตานี",
    "district": "เมืองปัตตานี",
    "postal_code": "94000"
  },
  {
    "province": "ปัตตานี",
    "district": "กะพ้อ",
    "postal_code": "94230"
  },
  {
    "province": "ปัตตานี",
    "district": "โคกโพธิ์",
    "postal_code": "94120"
  },
  {
    "province": "ปัตตานี",
    "district": "ทุ่งยางแดง",
    "postal_code": "94140"
  },
  {
    "province": "ปัตตานี",
    "district": "ปะนาเระ",
    "postal_code": "94130"
  },
  {
    "province": "ปัตตานี",
    "district": "มายอ",
    "postal_code": "94140"
  },
  {
    "province": "ปัตตานี",
    "district": "แม่ลาน",
    "postal_code": "94180"
  },
  {
    "province": "ปัตตานี",
    "district": "ไม้แก่น",
    "postal_code": "94220"
  },
  {
    "province": "ปัตตานี",
    "district": "ยะรัง",
    "postal_code": "94160"
  },
  {
    "province": "ปัตตานี",
    "district": "ยะหริ่ง",
    "postal_code": "94150"
  },
  {
    "province": "ปัตตานี",
    "district": "สายบุรี",
    "postal_code": "94110"
  },
  {
    "province": "ปัตตานี",
    "district": "หนองจิก",
    "postal_code": "94170"
  },
  {
    "province": "พระนครศรีอยุธยา",
    "district": "พระนครศรีอยุธยา",
    "postal_code": "13000"
  },
  {
    "province": "พระนครศรีอยุธยา",
    "district": "ท่าเรือ",
    "postal_code": "13130"
  },
  {
    "province": "พระนครศรีอยุธยา",
    "district": "นครหลวง",
    "postal_code": "13260"
  },
  {
    "province": "พระนครศรีอยุธยา",
    "district": "บางซ้าย",
    "postal_code": "13270"
  },
  {
    "province": "พระนครศรีอยุธยา",
    "district": "บางไทร",
    "postal_code": "13190"
  },
  {
    "province": "พระนครศรีอยุธยา",
    "district": "บางบาล",
    "postal_code": "13250"
  },
  {
    "province": "พระนครศรีอยุธยา",
    "district": "บางปะหัน",
    "postal_code": "13220"
  },
  {
    "province": "พระนครศรีอยุธยา",
    "district": "บางปะอิน",
    "postal_code": "13160"
  },
  {
    "province": "พระนครศรีอยุธยา",
    "district": "บ้านแพรก",
    "postal_code": "13240"
  },
  {
    "province": "พระนครศรีอยุธยา",
    "district": "ผักไห่",
    "postal_code": "13120"
  },
  {
    "province": "พระนครศรีอยุธยา",
    "district": "ภาชี",
    "postal_code": "13140"
  },
  {
    "province": "พระนครศรีอยุธยา",
    "district": "มหาราช",
    "postal_code": "13150"
  },
  {
    "province": "พระนครศรีอยุธยา",
    "district": "ลาดบัวหลวง",
    "postal_code": "13230"
  },
  {
    "province": "พระนครศรีอยุธยา",
    "district": "วังน้อย",
    "postal_code": "13170"
  },
  {
    "province": "พระนครศรีอยุธยา",
    "district": "เสนา",
    "postal_code": "13110"
  },
  {
    "province": "พระนครศรีอยุธยา",
    "district": "อุทัย",
    "postal_code": "13210"
  },
  {
    "province": "พะเยา",
    "district": "เมืองพะเยา",
    "postal_code": "56000"
  },
  {
    "province": "พะเยา",
    "district": "จุน",
    "postal_code": "56150"
  },
  {
    "province": "พะเยา",
    "district": "เชียงคำ",
    "postal_code": "56110"
  },
  {
    "province": "พะเยา",
    "district": "เชียงม่วน",
    "postal_code": "56160"
  },
  {
    "province": "พะเยา",
    "district": "ดอกคำใต้",
    "postal_code": "56120"
  },
  {
    "province": "พะเยา",
    "district": "ปง",
    "postal_code": "56140"
  },
  {
    "province": "พะเยา",
    "district": "ภูกามยาว",
    "postal_code": "56000"
  },
  {
    "province": "พะเยา",
    "district": "ภูซาง",
    "postal_code": "56110"
  },
  {
    "province": "พะเยา",
    "district": "แม่ใจ",
    "postal_code": "56130"
  },
  {
    "province": "พังงา",
    "district": "เมืองพังงา",
    "postal_code": "82000"
  },
  {
    "province": "พังงา",
    "district": "กะปง",
    "postal_code": "82170"
  },
  {
    "province": "พังงา",
    "district": "เกาะยาว",
    "postal_code": "82160"
  },
  {
    "province": "พังงา",
    "district": "คุระบุรี",
    "postal_code": "82150"
  },
  {
    "province": "พังงา",
    "district": "ตะกั่วทุ่ง",
    "postal_code": "82130"
  },
  {
    "province": "พังงา",
    "district": "ตะกั่วป่า",
    "postal_code": "82110"
  },
  {
    "province": "พังงา",
    "district": "ทับปุด",
    "postal_code": "82180"
  },
  {
    "province": "พังงา",
    "district": "ท้ายเหมือง",
    "postal_code": "82120"
  },
  {
    "province": "พัทลุง",
    "district": "เมืองพัทลุง",
    "postal_code": "93000"
  },
  {
    "province": "พัทลุง",
    "district": "กงหรา",
    "postal_code": "93180"
  },
  {
    "province": "พัทลุง",
    "district": "เขาชัยสน",
    "postal_code": "93130"
  },
  {
    "province": "พัทลุง",
    "district": "ควนขนุน",
    "postal_code": "93110"
  },
  {
    "province": "พัทลุง",
    "district": "ตะโหมด",
    "postal_code": "93160"
  },
  {
    "province": "พัทลุง",
    "district": "บางแก้ว",
    "postal_code": "93140"
  },
  {
    "province": "พัทลุง",
    "district": "ปากพะยูน",
    "postal_code": "93120"
  },
  {
    "province": "พัทลุง",
    "district": "ป่าบอน",
    "postal_code": "93170"
  },
  {
    "province": "พัทลุง",
    "district": "ป่าพะยอม",
    "postal_code": "93210"
  },
  {
    "province": "พัทลุง",
    "district": "ศรีนครินทร์",
    "postal_code": "93000"
  },
  {
    "province": "พัทลุง",
    "district": "ศรีบรรพต",
    "postal_code": "93190"
  },
  {
    "province": "พิจิตร",
    "district": "เมืองพิจิตร",
    "postal_code": "66000"
  },
  {
    "province": "พิจิตร",
    "district": "ดงเจริญ",
    "postal_code": "66210"
  },
  {
    "province": "พิจิตร",
    "district": "ตะพานหิน",
    "postal_code": "66110"
  },
  {
    "province": "พิจิตร",
    "district": "ทับคล้อ",
    "postal_code": "66150"
  },
  {
    "province": "พิจิตร",
    "district": "บางมูลนาก",
    "postal_code": "66120"
  },
  {
    "province": "พิจิตร",
    "district": "บึงนาราง",
    "postal_code": "66130"
  },
  {
    "province": "พิจิตร",
    "district": "โพทะเล",
    "postal_code": "66130"
  },
  {
    "province": "พิจิตร",
    "district": "โพธิ์ประทับช้าง",
    "postal_code": "66190"
  },
  {
    "province": "พิจิตร",
    "district": "วชิรบารมี",
    "postal_code": "66140"
  },
  {
    "province": "พิจิตร",
    "district": "วังทรายพูน",
    "postal_code": "66180"
  },
  {
    "province": "พิจิตร",
    "district": "สากเหล็ก",
    "postal_code": "66160"
  },
  {
    "province": "พิจิตร",
    "district": "สามง่าม",
    "postal_code": "66140"
  },
  {
    "province": "พิษณุโลก",
    "district": "เมืองพิษณุโลก",
    "postal_code": "65000"
  },
  {
    "province": "พิษณุโลก",
    "district": "นครไทย",
    "postal_code": "65120"
  },
  {
    "province": "พิษณุโลก",
    "district": "ชาติตระการ",
    "postal_code": "65170"
  },
  {
    "province": "พิษณุโลก",
    "district": "เนินมะปราง",
    "postal_code": "65190"
  },
  {
    "province": "พิษณุโลก",
    "district": "บางกระทุ่ม",
    "postal_code": "65110"
  },
  {
    "province": "พิษณุโลก",
    "district": "บางระกำ",
    "postal_code": "65140"
  },
  {
    "province": "พิษณุโลก",
    "district": "พรหมพิราม",
    "postal_code": "65150"
  },
  {
    "province": "พิษณุโลก",
    "district": "วังทอง",
    "postal_code": "65130"
  },
  {
    "province": "พิษณุโลก",
    "district": "วัดโบสถ์",
    "postal_code": "65160"
  },
  {
    "province": "เพชรบุรี",
    "district": "เมืองเพชรบุรี",
    "postal_code": "76000"
  },
  {
    "province": "เพชรบุรี",
    "district": "แก่งกระจาน",
    "postal_code": "76170"
  },
  {
    "province": "เพชรบุรี",
    "district": "เขาย้อย",
    "postal_code": "76140"
  },
  {
    "province": "เพชรบุรี",
    "district": "ชะอำ",
    "postal_code": "76120"
  },
  {
    "province": "เพชรบุรี",
    "district": "ท่ายาง",
    "postal_code": "76130"
  },
  {
    "province": "เพชรบุรี",
    "district": "บ้านลาด",
    "postal_code": "76150"
  },
  {
    "province": "เพชรบุรี",
    "district": "บ้านแหลม",
    "postal_code": "76110"
  },
  {
    "province": "เพชรบุรี",
    "district": "หนองหญ้าปล้อง",
    "postal_code": "76160"
  },
  {
    "province": "เพชรบูรณ์",
    "district": "เมืองเพชรบูรณ์",
    "postal_code": "67000"
  },
  {
    "province": "เพชรบูรณ์",
    "district": "เขาค้อ",
    "postal_code": "67270"
  },
  {
    "province": "เพชรบูรณ์",
    "district": "ชนแดน",
    "postal_code": "67150"
  },
  {
    "province": "เพชรบูรณ์",
    "district": "น้ำหนาว",
    "postal_code": "67260"
  },
  {
    "province": "เพชรบูรณ์",
    "district": "บึงสามพัน",
    "postal_code": "67160"
  },
  {
    "province": "เพชรบูรณ์",
    "district": "วังโป่ง",
    "postal_code": "67240"
  },
  {
    "province": "เพชรบูรณ์",
    "district": "วิเชียรบุรี",
    "postal_code": "67130"
  },
  {
    "province": "เพชรบูรณ์",
    "district": "ศรีเทพ",
    "postal_code": "67170"
  },
  {
    "province": "เพชรบูรณ์",
    "district": "หนองไผ่",
    "postal_code": "67140"
  },
  {
    "province": "เพชรบูรณ์",
    "district": "หล่มเก่า",
    "postal_code": "67120"
  },
  {
    "province": "เพชรบูรณ์",
    "district": "หล่มสัก",
    "postal_code": "67110"
  },
  {
    "province": "แพร่",
    "district": "เมืองแพร่",
    "postal_code": "54000"
  },
  {
    "province": "แพร่",
    "district": "เด่นชัย",
    "postal_code": "54110"
  },
  {
    "province": "แพร่",
    "district": "ร้องกวาง",
    "postal_code": "54140"
  },
  {
    "province": "แพร่",
    "district": "ลอง",
    "postal_code": "54150"
  },
  {
    "province": "แพร่",
    "district": "วังชิ้น",
    "postal_code": "54160"
  },
  {
    "province": "แพร่",
    "district": "สอง",
    "postal_code": "54120"
  },
  {
    "province": "แพร่",
    "district": "สูงเม่น",
    "postal_code": "54130"
  },
  {
    "province": "แพร่",
    "district": "หนองม่วงไข่",
    "postal_code": "54170"
  },
  {
    "province": "ภูเก็ต",
    "district": "เมืองภูเก็ต",
    "postal_code": "83000"
  },
  {
    "province": "ภูเก็ต",
    "district": "กะทู้",
    "postal_code": "83120"
  },
  {
    "province": "ภูเก็ต",
    "district": "ถลาง",
    "postal_code": "83110"
  },
  {
    "province": "มหาสารคาม",
    "district": "เมืองมหาสารคาม",
    "postal_code": "44000"
  },
  {
    "province": "มหาสารคาม",
    "district": "กันทรวิชัย",
    "postal_code": "44150"
  },
  {
    "province": "มหาสารคาม",
    "district": "กุดรัง",
    "postal_code": "44130"
  },
  {
    "province": "มหาสารคาม",
    "district": "แกดำ",
    "postal_code": "44190"
  },
  {
    "province": "มหาสารคาม",
    "district": "โกสุมพิสัย",
    "postal_code": "44140"
  },
  {
    "province": "มหาสารคาม",
    "district": "ชื่นชม",
    "postal_code": "44160"
  },
  {
    "province": "มหาสารคาม",
    "district": "เชียงยืน",
    "postal_code": "44160"
  },
  {
    "province": "มหาสารคาม",
    "district": "นาเชือก",
    "postal_code": "44170"
  },
  {
    "province": "มหาสารคาม",
    "district": "นาดูน",
    "postal_code": "44180"
  },
  {
    "province": "มหาสารคาม",
    "district": "บรบือ",
    "postal_code": "44130"
  },
  {
    "province": "มหาสารคาม",
    "district": "พยัคฆภูมิพิสัย",
    "postal_code": "44110"
  },
  {
    "province": "มหาสารคาม",
    "district": "ยางสีสุราช",
    "postal_code": "44210"
  },
  {
    "province": "มหาสารคาม",
    "district": "วาปีปทุม",
    "postal_code": "44120"
  },
  {
    "province": "มุกดาหาร",
    "district": "เมืองมุกดาหาร",
    "postal_code": "49000"
  },
  {
    "province": "มุกดาหาร",
    "district": "คำชะอี",
    "postal_code": "49110"
  },
  {
    "province": "มุกดาหาร",
    "district": "ดงหลวง",
    "postal_code": "49140"
  },
  {
    "province": "มุกดาหาร",
    "district": "ดอนตาล",
    "postal_code": "49120"
  },
  {
    "province": "มุกดาหาร",
    "district": "นิคมคำสร้อย",
    "postal_code": "49130"
  },
  {
    "province": "มุกดาหาร",
    "district": "หนองสูง",
    "postal_code": "49160"
  },
  {
    "province": "มุกดาหาร",
    "district": "หว้านใหญ่",
    "postal_code": "49150"
  },
  {
    "province": "แม่ฮ่องสอน",
    "district": "เมืองแม่ฮ่องสอน",
    "postal_code": "58000"
  },
  {
    "province": "แม่ฮ่องสอน",
    "district": "ขุนยวม",
    "postal_code": "58140"
  },
  {
    "province": "แม่ฮ่องสอน",
    "district": "ปางมะผ้า",
    "postal_code": "58150"
  },
  {
    "province": "แม่ฮ่องสอน",
    "district": "ปาย",
    "postal_code": "58130"
  },
  {
    "province": "แม่ฮ่องสอน",
    "district": "แม่ลาน้อย",
    "postal_code": "58120"
  },
  {
    "province": "แม่ฮ่องสอน",
    "district": "แม่สะเรียง",
    "postal_code": "58110"
  },
  {
    "province": "แม่ฮ่องสอน",
    "district": "สบเมย",
    "postal_code": "58110"
  },
  {
    "province": "ยโสธร",
    "district": "เมืองยโสธร",
    "postal_code": "35000"
  },
  {
    "province": "ยโสธร",
    "district": "กุดชุม",
    "postal_code": "35140"
  },
  {
    "province": "ยโสธร",
    "district": "ค้อวัง",
    "postal_code": "35160"
  },
  {
    "province": "ยโสธร",
    "district": "คำเขื่อนแก้ว",
    "postal_code": "35110"
  },
  {
    "province": "ยโสธร",
    "district": "ไทยเจริญ",
    "postal_code": "35120"
  },
  {
    "province": "ยโสธร",
    "district": "ทรายมูล",
    "postal_code": "35170"
  },
  {
    "province": "ยโสธร",
    "district": "ป่าติ้ว",
    "postal_code": "35150"
  },
  {
    "province": "ยโสธร",
    "district": "มหาชนะชัย",
    "postal_code": "35130"
  },
  {
    "province": "ยโสธร",
    "district": "เลิงนกทา",
    "postal_code": "35120"
  },
  {
    "province": "ยะลา",
    "district": "เมืองยะลา",
    "postal_code": "95000"
  },
  {
    "province": "ยะลา",
    "district": "กรงปินัง",
    "postal_code": "95000"
  },
  {
    "province": "ยะลา",
    "district": "กาบัง",
    "postal_code": "95120"
  },
  {
    "province": "ยะลา",
    "district": "ธารโต",
    "postal_code": "95150"
  },
  {
    "province": "ยะลา",
    "district": "บันนังสตา",
    "postal_code": "95130"
  },
  {
    "province": "ยะลา",
    "district": "เบตง",
    "postal_code": "95110"
  },
  {
    "province": "ยะลา",
    "district": "ยะหา",
    "postal_code": "95120"
  },
  {
    "province": "ยะลา",
    "district": "รามัน",
    "postal_code": "95140"
  },
  {
    "province": "ร้อยเอ็ด",
    "district": "เมืองร้อยเอ็ด",
    "postal_code": "45000"
  },
  {
    "province": "ร้อยเอ็ด",
    "district": "เกษตรวิสัย",
    "postal_code": "45150"
  },
  {
    "province": "ร้อยเอ็ด",
    "district": "จตุรพักตรพิมาน",
    "postal_code": "45180"
  },
  {
    "province": "ร้อยเอ็ด",
    "district": "จังหาร",
    "postal_code": "45000"
  },
  {
    "province": "ร้อยเอ็ด",
    "district": "เชียงขวัญ",
    "postal_code": "45000"
  },
  {
    "province": "ร้อยเอ็ด",
    "district": "ทุ่งเขาหลวง",
    "postal_code": "45170"
  },
  {
    "province": "ร้อยเอ็ด",
    "district": "ธวัชบุรี",
    "postal_code": "45170"
  },
  {
    "province": "ร้อยเอ็ด",
    "district": "ปทุมรัตต์",
    "postal_code": "45190"
  },
  {
    "province": "ร้อยเอ็ด",
    "district": "พนมไพร",
    "postal_code": "45140"
  },
  {
    "province": "ร้อยเอ็ด",
    "district": "โพธิ์ชัย",
    "postal_code": "45230"
  },
  {
    "province": "ร้อยเอ็ด",
    "district": "โพนทราย",
    "postal_code": "45240"
  },
  {
    "province": "ร้อยเอ็ด",
    "district": "โพนทอง",
    "postal_code": "45110"
  },
  {
    "province": "ร้อยเอ็ด",
    "district": "เมยวดี",
    "postal_code": "45250"
  },
  {
    "province": "ร้อยเอ็ด",
    "district": "เมืองสรวง",
    "postal_code": "45220"
  },
  {
    "province": "ร้อยเอ็ด",
    "district": "ศรีสมเด็จ",
    "postal_code": "45260"
  },
  {
    "province": "ร้อยเอ็ด",
    "district": "เสลภูมิ",
    "postal_code": "45120"
  },
  {
    "province": "ร้อยเอ็ด",
    "district": "สุวรรณภูมิ",
    "postal_code": "45130"
  },
  {
    "province": "ร้อยเอ็ด",
    "district": "หนองพอก",
    "postal_code": "45210"
  },
  {
    "province": "ร้อยเอ็ด",
    "district": "หนองฮี",
    "postal_code": "45140"
  },
  {
    "province": "ร้อยเอ็ด",
    "district": "อาจสามารถ",
    "postal_code": "45160"
  },
  {
    "province": "ระนอง",
    "district": "เมืองระนอง",
    "postal_code": "85000"
  },
  {
    "province": "ระนอง",
    "district": "กระบุรี",
    "postal_code": "85110"
  },
  {
    "province": "ระนอง",
    "district": "กะเปอร์",
    "postal_code": "85120"
  },
  {
    "province": "ระนอง",
    "district": "ละอุ่น",
    "postal_code": "85130"
  },
  {
    "province": "ระนอง",
    "district": "สุขสำราญ",
    "postal_code": "85120"
  },
  {
    "province": "ระยอง",
    "district": "เมืองระยอง",
    "postal_code": "21000"
  },
  {
    "province": "ระยอง",
    "district": "แกลง",
    "postal_code": "21110"
  },
  {
    "province": "ระยอง",
    "district": "เขาชะเมา",
    "postal_code": "21110"
  },
  {
    "province": "ระยอง",
    "district": "นิคมพัฒนา",
    "postal_code": "21180"
  },
  {
    "province": "ระยอง",
    "district": "บ้านค่าย",
    "postal_code": "21120"
  },
  {
    "province": "ระยอง",
    "district": "บ้านฉาง",
    "postal_code": "21130"
  },
  {
    "province": "ระยอง",
    "district": "ปลวกแดง",
    "postal_code": "21140"
  },
  {
    "province": "ระยอง",
    "district": "วังจันทร์",
    "postal_code": "21210"
  },
  {
    "province": "ราชบุรี",
    "district": "เมืองราชบุรี",
    "postal_code": "70000"
  },
  {
    "province": "ราชบุรี",
    "district": "จอมบึง",
    "postal_code": "70150"
  },
  {
    "province": "ราชบุรี",
    "district": "ดำเนินสะดวก",
    "postal_code": "70130"
  },
  {
    "province": "ราชบุรี",
    "district": "บางแพ",
    "postal_code": "70160"
  },
  {
    "province": "ราชบุรี",
    "district": "บ้านคา",
    "postal_code": "70180"
  },
  {
    "province": "ราชบุรี",
    "district": "บ้านโป่ง",
    "postal_code": "70110"
  },
  {
    "province": "ราชบุรี",
    "district": "ปากท่อ",
    "postal_code": "70140"
  },
  {
    "province": "ราชบุรี",
    "district": "โพธาราม",
    "postal_code": "70120"
  },
  {
    "province": "ราชบุรี",
    "district": "วัดเพลง",
    "postal_code": "70170"
  },
  {
    "province": "ราชบุรี",
    "district": "สวนผึ้ง",
    "postal_code": "70180"
  },
  {
    "province": "ลพบุรี",
    "district": "เมืองลพบุรี",
    "postal_code": "15000"
  },
  {
    "province": "ลพบุรี",
    "district": "โคกเจริญ",
    "postal_code": "15250"
  },
  {
    "province": "ลพบุรี",
    "district": "โคกสำโรง",
    "postal_code": "15120"
  },
  {
    "province": "ลพบุรี",
    "district": "ชัยบาดาล",
    "postal_code": "15130"
  },
  {
    "province": "ลพบุรี",
    "district": "ท่าวุ้ง",
    "postal_code": "15150"
  },
  {
    "province": "ลพบุรี",
    "district": "ท่าหลวง",
    "postal_code": "15230"
  },
  {
    "province": "ลพบุรี",
    "district": "บ้านหมี่",
    "postal_code": "15110"
  },
  {
    "province": "ลพบุรี",
    "district": "พัฒนานิคม",
    "postal_code": "15140"
  },
  {
    "province": "ลพบุรี",
    "district": "ลำสนธิ",
    "postal_code": "15190"
  },
  {
    "province": "ลพบุรี",
    "district": "สระโบสถ์",
    "postal_code": "15240"
  },
  {
    "province": "ลพบุรี",
    "district": "หนองม่วง",
    "postal_code": "15170"
  },
  {
    "province": "ลำปาง",
    "district": "เมืองลำปาง",
    "postal_code": "52000"
  },
  {
    "province": "ลำปาง",
    "district": "เกาะคา",
    "postal_code": "52130"
  },
  {
    "province": "ลำปาง",
    "district": "งาว",
    "postal_code": "52110"
  },
  {
    "province": "ลำปาง",
    "district": "แจ้ห่ม",
    "postal_code": "52120"
  },
  {
    "province": "ลำปาง",
    "district": "เถิน",
    "postal_code": "52160"
  },
  {
    "province": "ลำปาง",
    "district": "แม่ทะ",
    "postal_code": "52150"
  },
  {
    "province": "ลำปาง",
    "district": "แม่พริก",
    "postal_code": "52180"
  },
  {
    "province": "ลำปาง",
    "district": "เมืองปาน",
    "postal_code": "52240"
  },
  {
    "province": "ลำปาง",
    "district": "แม่เมาะ",
    "postal_code": "52220"
  },
  {
    "province": "ลำปาง",
    "district": "วังเหนือ",
    "postal_code": "52140"
  },
  {
    "province": "ลำปาง",
    "district": "สบปราบ",
    "postal_code": "52170"
  },
  {
    "province": "ลำปาง",
    "district": "เสริมงาม",
    "postal_code": "52210"
  },
  {
    "province": "ลำปาง",
    "district": "ห้างฉัตร",
    "postal_code": "52190"
  },
  {
    "province": "ลำพูน",
    "district": "เมืองลำพูน",
    "postal_code": "51000"
  },
  {
    "province": "ลำพูน",
    "district": "ทุ่งหัวช้าง",
    "postal_code": "51160"
  },
  {
    "province": "ลำพูน",
    "district": "บ้านธิ",
    "postal_code": "51180"
  },
  {
    "province": "ลำพูน",
    "district": "บ้านโฮ่ง",
    "postal_code": "51130"
  },
  {
    "province": "ลำพูน",
    "district": "ป่าซาง",
    "postal_code": "51120"
  },
  {
    "province": "ลำพูน",
    "district": "แม่ทา",
    "postal_code": "51140"
  },
  {
    "province": "ลำพูน",
    "district": "ลี้",
    "postal_code": "51110"
  },
  {
    "province": "ลำพูน",
    "district": "เวียงหนองล่อง",
    "postal_code": "51120"
  },
  {
    "province": "เลย",
    "district": "เมืองเลย",
    "postal_code": "42000"
  },
  {
    "province": "เลย",
    "district": "เชียงคาน",
    "postal_code": "42110"
  },
  {
    "province": "เลย",
    "district": "ด่านซ้าย",
    "postal_code": "42120"
  },
  {
    "province": "เลย",
    "district": "ท่าลี่",
    "postal_code": "42140"
  },
  {
    "province": "เลย",
    "district": "นาด้วง",
    "postal_code": "42210"
  },
  {
    "province": "เลย",
    "district": "นาแห้ว",
    "postal_code": "42170"
  },
  {
    "province": "เลย",
    "district": "ปากชม",
    "postal_code": "42150"
  },
  {
    "province": "เลย",
    "district": "ผาขาว",
    "postal_code": "42240"
  },
  {
    "province": "เลย",
    "district": "ภูกระดึง",
    "postal_code": "42180"
  },
  {
    "province": "เลย",
    "district": "ภูเรือ",
    "postal_code": "42160"
  },
  {
    "province": "เลย",
    "district": "ภูหลวง",
    "postal_code": "42230"
  },
  {
    "province": "เลย",
    "district": "วังสะพุง",
    "postal_code": "42130"
  },
  {
    "province": "เลย",
    "district": "หนองหิน",
    "postal_code": "42190"
  },
  {
    "province": "เลย",
    "district": "เอราวัณ",
    "postal_code": "42220"
  },
  {
    "province": "ศรีสะเกษ",
    "district": "เมืองศรีสะเกษ",
    "postal_code": "33000"
  },
  {
    "province": "ศรีสะเกษ",
    "district": "กันทรลักษ์",
    "postal_code": "33110"
  },
  {
    "province": "ศรีสะเกษ",
    "district": "กันทรารมย์",
    "postal_code": "33130"
  },
  {
    "province": "ศรีสะเกษ",
    "district": "ขุขันธ์",
    "postal_code": "33140"
  },
  {
    "province": "ศรีสะเกษ",
    "district": "ขุนหาญ",
    "postal_code": "33150"
  },
  {
    "province": "ศรีสะเกษ",
    "district": "น้ำเกลี้ยง",
    "postal_code": "33130"
  },
  {
    "province": "ศรีสะเกษ",
    "district": "โนนคูณ",
    "postal_code": "33250"
  },
  {
    "province": "ศรีสะเกษ",
    "district": "บึงบูรพ์",
    "postal_code": "33220"
  },
  {
    "province": "ศรีสะเกษ",
    "district": "เบญจลักษ์",
    "postal_code": "33110"
  },
  {
    "province": "ศรีสะเกษ",
    "district": "ปรางค์กู่",
    "postal_code": "33170"
  },
  {
    "province": "ศรีสะเกษ",
    "district": "พยุห์",
    "postal_code": "33230"
  },
  {
    "province": "ศรีสะเกษ",
    "district": "โพธิ์ศรีสุวรรณ",
    "postal_code": "33120"
  },
  {
    "province": "ศรีสะเกษ",
    "district": "ไพรบึง",
    "postal_code": "33180"
  },
  {
    "province": "ศรีสะเกษ",
    "district": "ภูสิงห์",
    "postal_code": "33140"
  },
  {
    "province": "ศรีสะเกษ",
    "district": "เมืองจันทร์",
    "postal_code": "33120"
  },
  {
    "province": "ศรีสะเกษ",
    "district": "ยางชุมน้อย",
    "postal_code": "33190"
  },
  {
    "province": "ศรีสะเกษ",
    "district": "ราษีไศล",
    "postal_code": "33160"
  },
  {
    "province": "ศรีสะเกษ",
    "district": "วังหิน",
    "postal_code": "33270"
  },
  {
    "province": "ศรีสะเกษ",
    "district": "ศรีรัตนะ",
    "postal_code": "33240"
  },
  {
    "province": "ศรีสะเกษ",
    "district": "ศิลาลาด",
    "postal_code": "33160"
  },
  {
    "province": "ศรีสะเกษ",
    "district": "ห้วยทับทัน",
    "postal_code": "33210"
  },
  {
    "province": "ศรีสะเกษ",
    "district": "อุทุมพรพิสัย",
    "postal_code": "33120"
  },
  {
    "province": "สกลนคร",
    "district": "เมืองสกลนคร",
    "postal_code": "47000"
  },
  {
    "province": "สกลนคร",
    "district": "กุดบาก",
    "postal_code": "47180"
  },
  {
    "province": "สกลนคร",
    "district": "กุสุมาลย์",
    "postal_code": "47210"
  },
  {
    "province": "สกลนคร",
    "district": "คำตากล้า",
    "postal_code": "47250"
  },
  {
    "province": "สกลนคร",
    "district": "โคกศรีสุพรรณ",
    "postal_code": "47280"
  },
  {
    "province": "สกลนคร",
    "district": "เจริญศิลป์",
    "postal_code": "47290"
  },
  {
    "province": "สกลนคร",
    "district": "เต่างอย",
    "postal_code": "47260"
  },
  {
    "province": "สกลนคร",
    "district": "นิคมน้ำอูน",
    "postal_code": "47270"
  },
  {
    "province": "สกลนคร",
    "district": "บ้านม่วง",
    "postal_code": "47140"
  },
  {
    "province": "สกลนคร",
    "district": "พรรณานิคม",
    "postal_code": "47130"
  },
  {
    "province": "สกลนคร",
    "district": "พังโคน",
    "postal_code": "47160"
  },
  {
    "province": "สกลนคร",
    "district": "โพนนาแก้ว",
    "postal_code": "47230"
  },
  {
    "province": "สกลนคร",
    "district": "ภูพาน",
    "postal_code": "47180"
  },
  {
    "province": "สกลนคร",
    "district": "วานรนิวาส",
    "postal_code": "47120"
  },
  {
    "province": "สกลนคร",
    "district": "วาริชภูมิ",
    "postal_code": "47150"
  },
  {
    "province": "สกลนคร",
    "district": "สว่างแดนดิน",
    "postal_code": "47110"
  },
  {
    "province": "สกลนคร",
    "district": "ส่องดาว",
    "postal_code": "47190"
  },
  {
    "province": "สกลนคร",
    "district": "อากาศอำนวย",
    "postal_code": "47170"
  },
  {
    "province": "สงขลา",
    "district": "เมืองสงขลา",
    "postal_code": "90000"
  },
  {
    "province": "สงขลา",
    "district": "กระแสสินธุ์",
    "postal_code": "90270"
  },
  {
    "province": "สงขลา",
    "district": "คลองหอยโข่ง",
    "postal_code": "90230"
  },
  {
    "province": "สงขลา",
    "district": "ควนเนียง",
    "postal_code": "90220"
  },
  {
    "province": "สงขลา",
    "district": "จะนะ",
    "postal_code": "90130"
  },
  {
    "province": "สงขลา",
    "district": "เทพา",
    "postal_code": "90150"
  },
  {
    "province": "สงขลา",
    "district": "นาทวี",
    "postal_code": "90160"
  },
  {
    "province": "สงขลา",
    "district": "นาหม่อม",
    "postal_code": "90310"
  },
  {
    "province": "สงขลา",
    "district": "บางกล่ำ",
    "postal_code": "90110"
  },
  {
    "province": "สงขลา",
    "district": "ระโนด",
    "postal_code": "90140"
  },
  {
    "province": "สงขลา",
    "district": "รัตภูมิ",
    "postal_code": "90180"
  },
  {
    "province": "สงขลา",
    "district": "สทิงพระ",
    "postal_code": "90190"
  },
  {
    "province": "สงขลา",
    "district": "สะเดา",
    "postal_code": "90120"
  },
  {
    "province": "สงขลา",
    "district": "สะบ้าย้อย",
    "postal_code": "90210"
  },
  {
    "province": "สงขลา",
    "district": "สิงหนคร",
    "postal_code": "90280"
  },
  {
    "province": "สงขลา",
    "district": "หาดใหญ่",
    "postal_code": "90110"
  },
  {
    "province": "สตูล",
    "district": "เมืองสตูล",
    "postal_code": "91000"
  },
  {
    "province": "สตูล",
    "district": "ควนกาหลง",
    "postal_code": "91130"
  },
  {
    "province": "สตูล",
    "district": "ควนโดน",
    "postal_code": "91160"
  },
  {
    "province": "สตูล",
    "district": "ท่าแพ",
    "postal_code": "91150"
  },
  {
    "province": "สตูล",
    "district": "ทุ่งหว้า",
    "postal_code": "91120"
  },
  {
    "province": "สตูล",
    "district": "มะนัง",
    "postal_code": "91130"
  },
  {
    "province": "สตูล",
    "district": "ละงู",
    "postal_code": "91110"
  },
  {
    "province": "สมุทรปราการ",
    "district": "เมืองสมุทรปราการ",
    "postal_code": "10270"
  },
  {
    "province": "สมุทรปราการ",
    "district": "บางบ่อ",
    "postal_code": "10560"
  },
  {
    "province": "สมุทรปราการ",
    "district": "บางพลี",
    "postal_code": "10540"
  },
  {
    "province": "สมุทรปราการ",
    "district": "บางเสาธง",
    "postal_code": "10570"
  },
  {
    "province": "สมุทรปราการ",
    "district": "พระประแดง",
    "postal_code": "10130"
  },
  {
    "province": "สมุทรปราการ",
    "district": "พระสมุทรเจดีย์",
    "postal_code": "10290"
  },
  {
    "province": "สมุทรสงคราม",
    "district": "เมืองสมุทรสงคราม",
    "postal_code": "75000"
  },
  {
    "province": "สมุทรสงคราม",
    "district": "บางคนที",
    "postal_code": "75120"
  },
  {
    "province": "สมุทรสงคราม",
    "district": "อัมพวา",
    "postal_code": "75110"
  },
  {
    "province": "สมุทรสาคร",
    "district": "เมืองสมุทรสาคร",
    "postal_code": "74000"
  },
  {
    "province": "สมุทรสาคร",
    "district": "กระทุ่มแบน",
    "postal_code": "74110"
  },
  {
    "province": "สมุทรสาคร",
    "district": "บ้านแพ้ว",
    "postal_code": "74120"
  },
  {
    "province": "สระแก้ว",
    "district": "เมืองสระแก้ว",
    "postal_code": "27000"
  },
  {
    "province": "สระแก้ว",
    "district": "เขาฉกรรจ์",
    "postal_code": "27000"
  },
  {
    "province": "สระแก้ว",
    "district": "คลองหาด",
    "postal_code": "27260"
  },
  {
    "province": "สระแก้ว",
    "district": "โคกสูง",
    "postal_code": "27120"
  },
  {
    "province": "สระแก้ว",
    "district": "ตาพระยา",
    "postal_code": "27180"
  },
  {
    "province": "สระแก้ว",
    "district": "วังน้ำเย็น",
    "postal_code": "27210"
  },
  {
    "province": "สระแก้ว",
    "district": "วังสมบูรณ์",
    "postal_code": "27250"
  },
  {
    "province": "สระแก้ว",
    "district": "วัฒนานคร",
    "postal_code": "27160"
  },
  {
    "province": "สระแก้ว",
    "district": "อรัญประเทศ",
    "postal_code": "27120"
  },
  {
    "province": "สระบุรี",
    "district": "เมืองสระบุรี",
    "postal_code": "18000"
  },
  {
    "province": "สระบุรี",
    "district": "แก่งคอย",
    "postal_code": "18110"
  },
  {
    "province": "สระบุรี",
    "district": "เฉลิมพระเกียรติ",
    "postal_code": "18000"
  },
  {
    "province": "สระบุรี",
    "district": "ดอนพุด",
    "postal_code": "18210"
  },
  {
    "province": "สระบุรี",
    "district": "บ้านหมอ",
    "postal_code": "18130"
  },
  {
    "province": "สระบุรี",
    "district": "พระพุทธบาท",
    "postal_code": "18120"
  },
  {
    "province": "สระบุรี",
    "district": "มวกเหล็ก",
    "postal_code": "18180"
  },
  {
    "province": "สระบุรี",
    "district": "วังม่วง",
    "postal_code": "18220"
  },
  {
    "province": "สระบุรี",
    "district": "วิหารแดง",
    "postal_code": "18150"
  },
  {
    "province": "สระบุรี",
    "district": "เสาไห้",
    "postal_code": "18160"
  },
  {
    "province": "สระบุรี",
    "district": "หนองแค",
    "postal_code": "18140"
  },
  {
    "province": "สระบุรี",
    "district": "หนองแซง",
    "postal_code": "18170"
  },
  {
    "province": "สระบุรี",
    "district": "หนองโดน",
    "postal_code": "18190"
  },
  {
    "province": "สิงห์บุรี",
    "district": "เมืองสิงห์บุรี",
    "postal_code": "16000"
  },
  {
    "province": "สิงห์บุรี",
    "district": "ค่ายบางระจัน",
    "postal_code": "16150"
  },
  {
    "province": "สิงห์บุรี",
    "district": "ท่าช้าง",
    "postal_code": "16140"
  },
  {
    "province": "สิงห์บุรี",
    "district": "บางระจัน",
    "postal_code": "16130"
  },
  {
    "province": "สิงห์บุรี",
    "district": "พรหมบุรี",
    "postal_code": "16120"
  },
  {
    "province": "สิงห์บุรี",
    "district": "อินทร์บุรี",
    "postal_code": "16110"
  },
  {
    "province": "สุโขทัย",
    "district": "เมืองสุโขทัย",
    "postal_code": "64000"
  },
  {
    "province": "สุโขทัย",
    "district": "กงไกรลาศ",
    "postal_code": "64170"
  },
  {
    "province": "สุโขทัย",
    "district": "คีรีมาศ",
    "postal_code": "64160"
  },
  {
    "province": "สุโขทัย",
    "district": "ทุ่งเสลี่ยม",
    "postal_code": "64150"
  },
  {
    "province": "สุโขทัย",
    "district": "บ้านด่านลานหอย",
    "postal_code": "64140"
  },
  {
    "province": "สุโขทัย",
    "district": "ศรีนคร",
    "postal_code": "64180"
  },
  {
    "province": "สุโขทัย",
    "district": "ศรีสัชนาลัย",
    "postal_code": "64130"
  },
  {
    "province": "สุโขทัย",
    "district": "ศรีสำโรง",
    "postal_code": "64120"
  },
  {
    "province": "สุโขทัย",
    "district": "สวรรคโลก",
    "postal_code": "64110"
  },
  {
    "province": "สุพรรณบุรี",
    "district": "เมืองสุพรรณบุรี",
    "postal_code": "72000"
  },
  {
    "province": "สุพรรณบุรี",
    "district": "ดอนเจดีย์",
    "postal_code": "72170"
  },
  {
    "province": "สุพรรณบุรี",
    "district": "ด่านช้าง",
    "postal_code": "72180"
  },
  {
    "province": "สุพรรณบุรี",
    "district": "เดิมบางนางบวช",
    "postal_code": "72120"
  },
  {
    "province": "สุพรรณบุรี",
    "district": "บางปลาม้า",
    "postal_code": "72150"
  },
  {
    "province": "สุพรรณบุรี",
    "district": "ศรีประจันต์",
    "postal_code": "72140"
  },
  {
    "province": "สุพรรณบุรี",
    "district": "สองพี่น้อง",
    "postal_code": "72110"
  },
  {
    "province": "สุพรรณบุรี",
    "district": "สามชุก",
    "postal_code": "72130"
  },
  {
    "province": "สุพรรณบุรี",
    "district": "หนองหญ้าไซ",
    "postal_code": "72240"
  },
  {
    "province": "สุพรรณบุรี",
    "district": "อู่ทอง",
    "postal_code": "72160"
  },
  {
    "province": "สุราษฎร์ธานี",
    "district": "เมืองสุราษฎร์ธานี",
    "postal_code": "84000"
  },
  {
    "province": "สุราษฎร์ธานี",
    "district": "กาญจนดิษฐ์",
    "postal_code": "84160"
  },
  {
    "province": "สุราษฎร์ธานี",
    "district": "เกาะพะงัน",
    "postal_code": "84280"
  },
  {
    "province": "สุราษฎร์ธานี",
    "district": "เกาะสมุย",
    "postal_code": "84140"
  },
  {
    "province": "สุราษฎร์ธานี",
    "district": "คีรีรัฐนิคม",
    "postal_code": "84180"
  },
  {
    "province": "สุราษฎร์ธานี",
    "district": "เคียนซา",
    "postal_code": "84260"
  },
  {
    "province": "สุราษฎร์ธานี",
    "district": "ชัยบุรี",
    "postal_code": "84350"
  },
  {
    "province": "สุราษฎร์ธานี",
    "district": "ไชยา",
    "postal_code": "84110"
  },
  {
    "province": "สุราษฎร์ธานี",
    "district": "ดอนสัก",
    "postal_code": "84220"
  },
  {
    "province": "สุราษฎร์ธานี",
    "district": "ท่าฉาง",
    "postal_code": "84150"
  },
  {
    "province": "สุราษฎร์ธานี",
    "district": "ท่าชนะ",
    "postal_code": "84170"
  },
  {
    "province": "สุราษฎร์ธานี",
    "district": "บ้านตาขุน",
    "postal_code": "84230"
  },
  {
    "province": "สุราษฎร์ธานี",
    "district": "บ้านนาเดิม",
    "postal_code": "84240"
  },
  {
    "province": "สุราษฎร์ธานี",
    "district": "บ้านนาสาร",
    "postal_code": "84120"
  },
  {
    "province": "สุราษฎร์ธานี",
    "district": "พนม",
    "postal_code": "84250"
  },
  {
    "province": "สุราษฎร์ธานี",
    "district": "พระแสง",
    "postal_code": "84210"
  },
  {
    "province": "สุราษฎร์ธานี",
    "district": "พุนพิน",
    "postal_code": "84130"
  },
  {
    "province": "สุราษฎร์ธานี",
    "district": "วิภาวดี",
    "postal_code": "84180"
  },
  {
    "province": "สุราษฎร์ธานี",
    "district": "เวียงสระ",
    "postal_code": "84190"
  },
  {
    "province": "สุรินทร์",
    "district": "เมืองสุรินทร์",
    "postal_code": "32000"
  },
  {
    "province": "สุรินทร์",
    "district": "กาบเชิง",
    "postal_code": "32210"
  },
  {
    "province": "สุรินทร์",
    "district": "เขวาสินรินทร์",
    "postal_code": "32000"
  },
  {
    "province": "สุรินทร์",
    "district": "จอมพระ",
    "postal_code": "32180"
  },
  {
    "province": "สุรินทร์",
    "district": "ชุมพลบุรี",
    "postal_code": "32190"
  },
  {
    "province": "สุรินทร์",
    "district": "ท่าตูม",
    "postal_code": "32120"
  },
  {
    "province": "สุรินทร์",
    "district": "โนนนารายณ์",
    "postal_code": "32130"
  },
  {
    "province": "สุรินทร์",
    "district": "บัวเชด",
    "postal_code": "32230"
  },
  {
    "province": "สุรินทร์",
    "district": "ปราสาท",
    "postal_code": "32140"
  },
  {
    "province": "สุรินทร์",
    "district": "พนมดงรัก",
    "postal_code": "32140"
  },
  {
    "province": "สุรินทร์",
    "district": "รัตนบุรี",
    "postal_code": "32130"
  },
  {
    "province": "สุรินทร์",
    "district": "ลำดวน",
    "postal_code": "32220"
  },
  {
    "province": "สุรินทร์",
    "district": "ศีขรภูมิ",
    "postal_code": "32110"
  },
  {
    "province": "สุรินทร์",
    "district": "ศรีณรงค์",
    "postal_code": "32150"
  },
  {
    "province": "สุรินทร์",
    "district": "สนม",
    "postal_code": "32160"
  },
  {
    "province": "สุรินทร์",
    "district": "สังขะ",
    "postal_code": "32150"
  },
  {
    "province": "สุรินทร์",
    "district": "สำโรงทาบ",
    "postal_code": "32170"
  },
  {
    "province": "หนองคาย",
    "district": "เมืองหนองคาย",
    "postal_code": "43000"
  },
  {
    "province": "หนองคาย",
    "district": "ท่าบ่อ",
    "postal_code": "43110"
  },
  {
    "province": "หนองคาย",
    "district": "เฝ้าไร่",
    "postal_code": "43120"
  },
  {
    "province": "หนองคาย",
    "district": "โพธิ์ตาก",
    "postal_code": "43130"
  },
  {
    "province": "หนองคาย",
    "district": "โพนพิสัย",
    "postal_code": "43120"
  },
  {
    "province": "หนองคาย",
    "district": "รัตนวาปี",
    "postal_code": "43120"
  },
  {
    "province": "หนองคาย",
    "district": "ศรีเชียงใหม่",
    "postal_code": "43130"
  },
  {
    "province": "หนองคาย",
    "district": "สระใคร",
    "postal_code": "43100"
  },
  {
    "province": "หนองคาย",
    "district": "สังคม",
    "postal_code": "43160"
  },
  {
    "province": "หนองบัวลำภู",
    "district": "เมืองหนองบัวลำภู",
    "postal_code": "39000"
  },
  {
    "province": "หนองบัวลำภู",
    "district": "นากลาง",
    "postal_code": "39170"
  },
  {
    "province": "หนองบัวลำภู",
    "district": "นาวัง",
    "postal_code": "39170"
  },
  {
    "province": "หนองบัวลำภู",
    "district": "โนนสัง",
    "postal_code": "39140"
  },
  {
    "province": "หนองบัวลำภู",
    "district": "ศรีบุญเรือง",
    "postal_code": "39180"
  },
  {
    "province": "หนองบัวลำภู",
    "district": "สุวรรณคูหา",
    "postal_code": "39270"
  },
  {
    "province": "อ่างทอง",
    "district": "เมืองอ่างทอง",
    "postal_code": "14000"
  },
  {
    "province": "อ่างทอง",
    "district": "ไชโย",
    "postal_code": "14140"
  },
  {
    "province": "อ่างทอง",
    "district": "ป่าโมก",
    "postal_code": "14130"
  },
  {
    "province": "อ่างทอง",
    "district": "โพธิ์ทอง",
    "postal_code": "14120"
  },
  {
    "province": "อ่างทอง",
    "district": "วิเศษชัยชาญ",
    "postal_code": "14110"
  },
  {
    "province": "อ่างทอง",
    "district": "สามโก้",
    "postal_code": "14160"
  },
  {
    "province": "อ่างทอง",
    "district": "แสวงหา",
    "postal_code": "14150"
  },
  {
    "province": "อำนาจเจริญ",
    "district": "เมืองอำนาจเจริญ",
    "postal_code": "37000"
  },
  {
    "province": "อำนาจเจริญ",
    "district": "ชานุมาน",
    "postal_code": "37210"
  },
  {
    "province": "อำนาจเจริญ",
    "district": "ปทุมราชวงศา",
    "postal_code": "37110"
  },
  {
    "province": "อำนาจเจริญ",
    "district": "พนา",
    "postal_code": "37180"
  },
  {
    "province": "อำนาจเจริญ",
    "district": "ลืออำนาจ",
    "postal_code": "37120"
  },
  {
    "province": "อำนาจเจริญ",
    "district": "เสนางคนิคม",
    "postal_code": "37290"
  },
  {
    "province": "อำนาจเจริญ",
    "district": "หัวตะพาน",
    "postal_code": "37240"
  },
  {
    "province": "อุดรธานี",
    "district": "เมืองอุดรธานี",
    "postal_code": "41000"
  },
  {
    "province": "อุดรธานี",
    "district": "กุดจับ",
    "postal_code": "41250"
  },
  {
    "province": "อุดรธานี",
    "district": "กุมภวาปี",
    "postal_code": "41110"
  },
  {
    "province": "อุดรธานี",
    "district": "กู่แก้ว",
    "postal_code": "41130"
  },
  {
    "province": "อุดรธานี",
    "district": "ไชยวาน",
    "postal_code": "41290"
  },
  {
    "province": "อุดรธานี",
    "district": "ทุ่งฝน",
    "postal_code": "41310"
  },
  {
    "province": "อุดรธานี",
    "district": "นายูง",
    "postal_code": "41380"
  },
  {
    "province": "อุดรธานี",
    "district": "น้ำโสม",
    "postal_code": "41210"
  },
  {
    "province": "อุดรธานี",
    "district": "โนนสะอาด",
    "postal_code": "41240"
  },
  {
    "province": "อุดรธานี",
    "district": "บ้านดุง",
    "postal_code": "41190"
  },
  {
    "province": "อุดรธานี",
    "district": "บ้านผือ",
    "postal_code": "41160"
  },
  {
    "province": "อุดรธานี",
    "district": "ประจักษ์ศิลปาคม",
    "postal_code": "41110"
  },
  {
    "province": "อุดรธานี",
    "district": "พิบูลย์รักษ์",
    "postal_code": "41130"
  },
  {
    "province": "อุดรธานี",
    "district": "เพ็ญ",
    "postal_code": "41150"
  },
  {
    "province": "อุดรธานี",
    "district": "วังสามหมอ",
    "postal_code": "41280"
  },
  {
    "province": "อุดรธานี",
    "district": "ศรีธาตุ",
    "postal_code": "41230"
  },
  {
    "province": "อุดรธานี",
    "district": "สร้างคอม",
    "postal_code": "41260"
  },
  {
    "province": "อุดรธานี",
    "district": "หนองวัวซอ",
    "postal_code": "41220"
  },
  {
    "province": "อุดรธานี",
    "district": "หนองแสง",
    "postal_code": "41340"
  },
  {
    "province": "อุดรธานี",
    "district": "หนองหาน",
    "postal_code": "41130"
  },
  {
    "province": "อุตรดิตถ์",
    "district": "เมืองอุตรดิตถ์",
    "postal_code": "53000"
  },
  {
    "province": "อุตรดิตถ์",
    "district": "ตรอน",
    "postal_code": "53140"
  },
  {
    "province": "อุตรดิตถ์",
    "district": "ทองแสนขัน",
    "postal_code": "53230"
  },
  {
    "province": "อุตรดิตถ์",
    "district": "ท่าปลา",
    "postal_code": "53150"
  },
  {
    "province": "อุตรดิตถ์",
    "district": "น้ำปาด",
    "postal_code": "53110"
  },
  {
    "province": "อุตรดิตถ์",
    "district": "บ้านโคก",
    "postal_code": "53180"
  },
  {
    "province": "อุตรดิตถ์",
    "district": "พิชัย",
    "postal_code": "53120"
  },
  {
    "province": "อุตรดิตถ์",
    "district": "ฟากท่า",
    "postal_code": "53160"
  },
  {
    "province": "อุตรดิตถ์",
    "district": "ลับแล",
    "postal_code": "53130"
  },
  {
    "province": "อุทัยธานี",
    "district": "เมืองอุทัยธานี",
    "postal_code": "61000"
  },
  {
    "province": "อุทัยธานี",
    "district": "ทัพทัน",
    "postal_code": "61120"
  },
  {
    "province": "อุทัยธานี",
    "district": "บ้านไร่",
    "postal_code": "61140"
  },
  {
    "province": "อุทัยธานี",
    "district": "ลานสัก",
    "postal_code": "61160"
  },
  {
    "province": "อุทัยธานี",
    "district": "สว่างอารมณ์",
    "postal_code": "61150"
  },
  {
    "province": "อุทัยธานี",
    "district": "หนองขาหย่าง",
    "postal_code": "61130"
  },
  {
    "province": "อุทัยธานี",
    "district": "หนองฉาง",
    "postal_code": "61110"
  },
  {
    "province": "อุทัยธานี",
    "district": "ห้วยคต",
    "postal_code": "61170"
  },
  {
    "province": "อุบลราชธานี",
    "district": "เมืองอุบลราชธานี",
    "postal_code": "34000"
  },
  {
    "province": "อุบลราชธานี",
    "district": "กุดข้าวปุ้น",
    "postal_code": "34270"
  },
  {
    "province": "อุบลราชธานี",
    "district": "เขมราฐ",
    "postal_code": "34170"
  },
  {
    "province": "อุบลราชธานี",
    "district": "เขื่องใน",
    "postal_code": "34150"
  },
  {
    "province": "อุบลราชธานี",
    "district": "โขงเจียม",
    "postal_code": "34220"
  },
  {
    "province": "อุบลราชธานี",
    "district": "ดอนมดแดง",
    "postal_code": "34000"
  },
  {
    "province": "อุบลราชธานี",
    "district": "เดชอุดม",
    "postal_code": "34160"
  },
  {
    "province": "อุบลราชธานี",
    "district": "ตระการพืชผล",
    "postal_code": "34130"
  },
  {
    "province": "อุบลราชธานี",
    "district": "ตาลสุม",
    "postal_code": "34330"
  },
  {
    "province": "อุบลราชธานี",
    "district": "ทุ่งศรีอุดม",
    "postal_code": "34160"
  },
  {
    "province": "อุบลราชธานี",
    "district": "นาจะหลวย",
    "postal_code": "34280"
  },
  {
    "province": "อุบลราชธานี",
    "district": "นาตาล",
    "postal_code": "34170"
  },
  {
    "province": "อุบลราชธานี",
    "district": "นาเยีย",
    "postal_code": "34160"
  },
  {
    "province": "อุบลราชธานี",
    "district": "น้ำขุ่น",
    "postal_code": "34260"
  },
  {
    "province": "อุบลราชธานี",
    "district": "น้ำยืน",
    "postal_code": "34260"
  },
  {
    "province": "อุบลราชธานี",
    "district": "บุณฑริก",
    "postal_code": "34230"
  },
  {
    "province": "อุบลราชธานี",
    "district": "พิบูลมังสาหาร",
    "postal_code": "34110"
  },
  {
    "province": "อุบลราชธานี",
    "district": "โพธิ์ไทร",
    "postal_code": "34340"
  },
  {
    "province": "อุบลราชธานี",
    "district": "ม่วงสามสิบ",
    "postal_code": "34140"
  },
  {
    "province": "อุบลราชธานี",
    "district": "วารินชำราบ",
    "postal_code": "34190"
  },
  {
    "province": "อุบลราชธานี",
    "district": "ศรีเมืองใหม่",
    "postal_code": "34250"
  },
  {
    "province": "อุบลราชธานี",
    "district": "สำโรง",
    "postal_code": "34360"
  },
  {
    "province": "อุบลราชธานี",
    "district": "สิรินธร",
    "postal_code": "34350"
  },
  {
    "province": "อุบลราชธานี",
    "district": "สว่างวีระวงศ์",
    "postal_code": "34190"
  },
  {
    "province": "อุบลราชธานี",
    "district": "เหล่าเสือโก้ก",
    "postal_code": "34000"
  }
]